moj_prison_name,gscraped_desc,gscraped_address,gscraped_opened,gscraped_capacity,gscraped_type,gscraped_cat,gscraped_postcode,gscraped_lat,gscraped_lng,dt_prison_name,wiki_name,dt_name,dt_full_name,dt_region,dt_url,dt_address,dt_main_switchboard,dt_type_of_prison,dt_postcode,dt_lat,dt_lng,lat,lng,postcode,estate,nomis_id,dt_male_female,dt_youth,dt_category,lat_manual,lng_manual
Acklington,"HM Prison Acklington was a Category C men's prison, located near the village of Acklington a few miles from Amble), in Northumberland, England. Acklington Prison was operated by Her Majesty's Prison Service. Wikipedia

Address: HMP Northumberland, Morpeth, Northumberland, NE65 9XG
Hours: Open today · 8am–6pmSaturday8am–6pmSunday8am–6pmMonday8am–6pmTuesday8am–6pmWednesday8am–6pmThursday8am–6pmFriday8am–6pm
Phone: 01670 762300
Opened: 1972","HMP Northumberland, Morpeth, Northumberland, NE65 9XG",1972,,male,c ,NE65 9XG,55.2964636363,-1.6324150818,,,,,,,,,,,,,55.2964636363,-1.6324150818,NE65 9XG,Acklington,AKI,,,,,
Altcourse,"HM Prison Altcourse is a Category B men's private prison and Young Offenders Institution in the Fazakerley area of Liverpool in Merseyside, England. The prison is operated by G4S. Wikipedia

Address: Brookfield Dr, Liverpool L9 7LH
Opened: 1997
Phone: 0151 522 2000
Hours: Closed today SaturdayClosedSundayClosedMondayOpen 24 hoursTuesdayOpen 24 hoursWednesdayOpen 24 hoursThursdayOpen 24 hoursFridayOpen 24 hours
Capacity: 1,324","Brookfield Dr, Liverpool L9 7LH",1997,1324,"male, yoi",b ,L9 7LH,53.4609267593,-2.9360314937,Altcourse,Altcourse,Altcourse,HMP Altcourse,NW,http://www.doingtime.co.uk/hmp-altcourse/,Higher Lane  Fazakerley  Liverpool L9 7LH,0151 522 2000,Male Cat B,L9 7LH,53.4609267593,-2.9360314937,53.4609267593,-2.9360314937,L9 7LH,Altcourse,ACI,,adult,,,
Ashfield,"HMP Ashfield is now a Category C adult sex offenders prison.
HM Prison Ashfield is an adult male sex offenders prison located in the village of Pucklechurch, in Gloucestershire, England. The prison is operated by Serco. Wikipedia

Address: Pucklechurch
Phone: 0117 303 8000
Capacity: 400
Opened: 1999",Pucklechurch,1999,400,male,c ,,,,Ashfield,Ashfield,Ashfield,HMP Ashfield,SW,http://www.doingtime.co.uk/hmp-ashfield/,"Shortwood Road,  Pucklechurch,  Bristol,  BS16 9QJ",0117 303 8000,Male Cat C Sex Offenders,BS16 9QJ,51.4824221724,-2.4388655103,51.4824221724,-2.4388655103,BS16 9QJ,Ashfield,ASI,,adult,,,
Ashwell,"HM Prison Ashwell was a Category C men's prison located in the parish of Burley, in the county of Rutland, England. Wikipedia

Opened: 1955",,1955,,male,c ,,,,,,,,,,,,,,,,,,,,,,,,52.6918,-0.7179
Askham Grange,"HM Prison Askham Grange is a women's open category prison, located in Askham Richard village in North Yorkshire, England. The prison is run by Her Majesty's Prison Service. Wikipedia

Address: Askham Richard, York YO23 3FT
Phone: 01904 772000","Askham Richard, York YO23 3FT",,,female,open,YO23 3FT,53.927080602,-1.1859571754,Askham Grange,Askham Grange,Askham Grange,HMP & YOI Askham Grange,Y&H,http://www.doingtime.co.uk/hmp-yoi-askham-grange/,Askham Richard  York  YO23 3FT,01904 772000,Female adult and young offender,YO23 3FT,53.927080602,-1.1859571754,53.927080602,-1.1859571754,YO23 3FT,Askham Grange,AGI,,youth,,,
Aylesbury,"HM Prison Aylesbury is a Young Offender Institution situated in Aylesbury, Buckinghamshire, England. The prison is located on the north side of the town centre, on Bierton Road. The prison is operated by Her Majesty's Prison Service. Wikipedia

Address: Bierton Rd, Aylesbury HP20 1EH
Phone: 01296 444000
Opened: 1847","Bierton Rd, Aylesbury HP20 1EH",1847,,yoi,,HP20 1EH,51.8219797857,-0.7998810641,Aylesbury,Aylesbury,Aylesbury,HMYOI Aylesbury,SC,http://www.doingtime.co.uk/hmyoi-aylesbury/,Bierton Road  Aylesbury  Bucks  HP20 1EH,01296 444 000,"Male Young Offenders 18-21yrs old, with sentences in excess of 2 years",HP20 1EH,51.8219797857,-0.7998810641,51.8219797857,-0.7998810641,HP20 1EH,Aylesbury,AYI,,youth,,,
Bedford,"HMP Bedford is a Category B men's prison, located in the Harpur area of Bedford, Bedfordshire, England. The prison is operated by Her Majesty's Prison Service. Wikipedia

Address: St Loyes St, Bedford MK40 1HG
Phone: 01234 373000
Opened: 1801","St Loyes St, Bedford MK40 1HG",1801,,male,b ,MK40 1HG,52.1393214218,-0.470231826,Bedford,Bedford,Bedford,HMP Bedford,EoE,http://www.doingtime.co.uk/hmp-bedford/,St Loyes Street  Bedford  MK40 1HG,01234 373000,Local Cat B Male,MK40 1HG,52.1393214218,-0.470231826,52.1393214218,-0.470231826,MK40 1HG,Bedford,BFI,male,adult,,,
Belmarsh,"HM Prison Belmarsh is a Category A men's prison in Thamesmead, south-east London, England. It is run by Her Majesty's Prison Service. Wikipedia

Address: Western Way, London SE28 0EB
Opened: 1991
Phone: 020 8331 4400
Owner: Her Majesty's Prison Service
Architecture firm: TBV Consult","Western Way, London SE28 0EB",1991,,male,a ,SE28 0EB,51.496846124,0.0927039036,Belmarsh,Belmarsh,Belmarsh,HMP Belmarsh,Lon,http://www.doingtime.co.uk/hmp-belmarsh/,Western Way  Thamesmead  London SE28 0EB,020 8331 4400,Local male prison with high secure unit.,SE28 0EB,51.496846124,0.0927039036,51.496846124,0.0927039036,SE28 0EB,Belmarsh,BAI,male,adult,,,
Birmingham,"HM Prison Winson Green is a Category B/C men's prison, located in the Winson Green area of Birmingham, England. The prison was formerly operated by Her Majesty's Prison Service. It is now managed by G4S . Wikipedia

Address: Winson Green Rd, Birmingham B18 4AS
Opened: 1849
Phone: 0121 598 8000
Hours: Open today · 9:30–11:30am, 1:30–4pmSaturday9:30–11:30am, 1:30–4pmSunday10:15–11:30am, 1:30–4pmMonday9–11:30am, 1:30–3:45pmTuesday9–11:30am, 1:30–3:45pm, 6–7pmWednesday9–11:30am, 1:30–3:45pm, 6–7pmThursday9–11:30am, 1:30–3:45pm, 6–7pmFriday9–11:30am, 2–4pm
Capacity: 1,450
Architectural style: Victorian architecture","Winson Green Rd, Birmingham B18 4AS",1849,1450,male,b/c ,B18 4AS,52.4924891883,-1.9385128789,Birmingham,Birmingham,Birmingham,HMP Birmingham,WM,http://www.doingtime.co.uk/hmp-birmingham/,"Winson Green Road, Birmingham, B18 4AS",0121 598 8000,Male Cat B & C,B18 4AS,52.4924891883,-1.9385128789,52.4924891883,-1.9385128789,B18 4AS,Birmingham,BMI,,adult,,,
Blantyre House,"HM Prison Blantyre House is a Category C/D resettlement prison for men, located on the outskirts of Goudhurst in Kent, England. The prison is operated by Her Majesty's Prison Service. Wikipedia

Address: Goudhurst
Opened: 1954",Goudhurst,1954,,male,c/d ,,,,Blantyre House,,Blantyre House,HMP Blantyre House,K&S,http://www.doingtime.co.uk/hmp-blantyre-house/,"Horden,Goudhurst,Kent, TN17 2NH",01580 213200,Male Cat C & D,TN17 2NH,,,,,TN17 2NH,Blantyre House,BHI,,adult,,51.1341,0.5041
Blundeston,"HM Prison Blundeston was a Category C men's prison, located in the Village of Blundeston in Suffolk, England. The prison was operated by Her Majesty's Prison Service, and closed in December 2013. Wikipedia

Opened: 1963",,1963,,male,c ,,,,,,,,,,,,,,,,,,,,,,,,52.5101,1.7047
Brinsford,"HM Prison Brinsford is a male juveniles' prison and Young Offenders Institution, located in the village of Featherstone, in Staffordshire, England. The prison is operated by Her Majesty's Prison Service. Wikipedia

Address: New Rd, Wolverhampton WV10 7PY
Phone: 01902 533450
Opened: 1991","New Rd, Wolverhampton WV10 7PY",1991,,"male, yoi",,WV10 7PY,52.6501415705,-2.1108159575,Brinsford,Brinsford,Brinsford,HMYOI Brinsford,WM,http://www.doingtime.co.uk/hmp-brinsford/,"New Road, Featherstone, Wolverhampton, WV10 7PY",01902 533 450,Male Young Offenders (18-21),WV10 7PY,52.6501415705,-2.1108159575,52.6501415705,-2.1108159575,WV10 7PY,Brinsford,BSI,,youth,,,
Bristol,"HMP Bristol is a Category B men's prison, located in the Horfield area of Bristol. The prison is operated by Her Majesty's Prison Service. Wikipedia
",,,,male,b ,,,,Bristol,Bristol,Bristol,HMP Bristol,SW,http://www.doingtime.co.uk/hmp-bristol/,19 Cambridge Road  Bristol  BS7 8PS,0117 372 3100,Male Cat B,BS7 8PS,51.4806099304,-2.5906651245,51.4806099304,-2.5906651245,BS7 8PS,Bristol,BLI,,adult,,,
Brixton,"HM Prison Brixton is a local men's prison, located in Brixton area of the London Borough of Lambeth, in inner-South London. The prison is operated by Her Majesty's Prison Service. Wikipedia

Address: Jebb Ave, Brixton, London SW2 5XF
Opened: 1820
Phone: 020 8588 6000
London borough: London Borough of Lambeth","Jebb Ave, Brixton, London SW2 5XF",1820,,male,,SW2 5XF,51.4518242062,-0.1254940058,Brixton,Brixton,Brixton,HMP Brixton,Lon,http://www.doingtime.co.uk/hmp-brixton/,Jebb Avenue  Brixton  LondonSW2 5XF,020 8588 6000,Male Cat C/D,SW2 5XF,51.4518242062,-0.1254940058,51.4518242062,-0.1254940058,SW2 5XF,Brixton,BXI,,adult,,,
Bronzefield,"HMP Bronzefield is a Category A adult and young offender female's prison located on the outskirts of Ashford in Surrey, England. Wikipedia

Address: Woodthorpe Rd, Shepperton, Ashford TW15 3JZ
Phone: 01784 425690
Capacity: 527
Opened: 2004","Woodthorpe Rd, Shepperton, Ashford TW15 3JZ",2004,527,"female, yoi",a ,TW15 3JZ,51.432920949,-0.4828503911,Bronzefield,Bronzefield,Bronzefield,HMP & YOI Bronzefield,Lon,http://www.doingtime.co.uk/hmp-yoi-bronzefield/,Woodthorpe Road  Ashford  Surrey TW15 3JZ,01784 425690,Female Adult and YO,TW15 3JZ,51.432920949,-0.4828503911,51.432920949,-0.4828503911,TW15 3JZ,Bronzefield,BZI,,youth,,,
Buckley Hall,"HM Prison Buckley Hall is a Category C men's prison in the Buckley district of Rochdale in North West England. It is operated by Her Majesty's Prison Service. Wikipedia

Address: Buckley Farm Ln, Rochdale OL12 9DP
Phone: 01706 514300","Buckley Farm Ln, Rochdale OL12 9DP",,,male,c ,OL12 9DP,53.6349607494,-2.1450495303,Buckley Hall,Buckley Hall,Buckley Hall,HMP Buckley Hall,NW,http://www.doingtime.co.uk/hmp-buckley-hall/,Buckley Hall Road  Rochdale  Lancashire  OL12 9DP,01706 514 300,Male Cat C,OL12 9DP,53.6349607494,-2.1450495303,53.6349607494,-2.1450495303,OL12 9DP,Buckley Hall,BCI,,adult,,,
Bullingdon,"HMP Bullingdon is a Category B/C men's prison, in the village of Arncott in Oxfordshire, England. The prison is operated by Her Majesty's Prison Service. Bullingdon Prison is named after Bullingdon, the ancient hundred in Oxfordshire. Wikipedia

Address: Patrick Haugh Rd, Bicester OX25 1PZ
Phone: 01869 353100
Opened: 1992","Patrick Haugh Rd, Bicester OX25 1PZ",1992,,male,b/c ,OX25 1PZ,51.8484966339,-1.0944229711,Bullingdon,Bullingdon,Bullingdon,HMP Bullingdon,SC,http://www.doingtime.co.uk/hmp-bullingdon/,PO Box 50  Patrick Haugh Road  Bicester  OXON  OX25 1PZ,01869 353100,Male Cat B/C,OX25 1PZ,51.8484966339,-1.0944229711,51.8484966339,-1.0944229711,OX25 1PZ,Bullingdon,BNI,,adult,,,
Bullingdon,"HMP Bullingdon is a Category B/C men's prison, in the village of Arncott in Oxfordshire, England. The prison is operated by Her Majesty's Prison Service. Bullingdon Prison is named after Bullingdon, the ancient hundred in Oxfordshire. Wikipedia

Address: Patrick Haugh Rd, Bicester OX25 1PZ
Phone: 01869 353100
Opened: 1992","Patrick Haugh Rd, Bicester OX25 1PZ",1992,,male,b/c ,OX25 1PZ,51.8484966339,-1.0944229711,Bullingdon,Bullingdon,Bullingdon,HMP Bullingdon,SC,http://www.doingtime.co.uk/hmp-bullingdon/,PO Box 50  Patrick Haugh Road  Bicester  OXON  OX25 1PZ,01869 353100,Male Cat B/C,OX25 1PZ,51.8484966339,-1.0944229711,51.8484966339,-1.0944229711,OX25 1PZ,Bullingdon,BNI,,adult,,,
Bullwood Hall,"HM Prison Bullwood Hall is a former Category C men's prison and Young Offenders Institution, located in Hockley, Essex, England. The prison was operated by Her Majesty's Prison Service. Wikipedia
",,,,"male, yoi",c ,,,,,,,,,,,,,,,,,,,,,,,,51.593889,0.633056
Bure,"Her Majesty's Prison Bure, more commonly known as HM Prison Bure, and often abbreviated to HMP Bure, is a Category C men's prison, located in the parish of Scottow in Norfolk, England. Wikipedia

Address: Jaguar Drive, Badersfield, Norwich, Norfolk NR10 5GB
Phone: 01603 326000
Capacity: 624
Opened: November 30, 2009","Jaguar Drive, Badersfield, Norwich, Norfolk NR10 5GB","November 30, 2009",624,male,c ,NR10 5GB,52.7590101248,1.3470073286,Bure,Bure,Bure,HMP Bure,EoE,http://www.doingtime.co.uk/hmp-bure/,Jaguar Drive  Badersfield  Norwich  Norfolk  NR10 5GB,01603 326 000,Male Cat C,NR10 5GB,52.7590101248,1.3470073286,52.7590101248,1.3470073286,NR10 5GB,Bure,BRI,,adult,,,
Canterbury,"HMP Canterbury is a former prison in Canterbury, Kent, England. The prison was operated by Her Majesty's Prison Service. The former prison site was bought by Canterbury Christ Church University in April 2014. Wikipedia

Address: 46 Longport, Canterbury CT1 1PJ
Phone: 01227 862800
Opened: 1808","46 Longport, Canterbury CT1 1PJ",1808,,,,CT1 1PJ,51.2775771581,1.0919648288,,,,,,,,,,,,,51.2775771581,1.0919648288,CT1 1PJ,,,,,,,
Cardiff,"HM Prison Cardiff is a Category B men's prison, located in the Adamsdown area of Cardiff, Wales. The prison is operated by Her Majesty's Prison Service. Wikipedia

Address: Knox Rd, Cardiff, South Glamorgan CF24 0UG
Opened: 1832
Phone: 029 2092 3100","Knox Rd, Cardiff, South Glamorgan CF24 0UG",1832,,male,b ,CF24 0UG,51.4808552338,-3.1682369365,Cardiff,Cardiff,Cardiff,HMP Cardiff,Wal,http://www.doingtime.co.uk/hmp-cardiff/,Knox Road  Cardiff  CF24 0UG,02920 923100,Male Cat B/C,CF24 0UG,51.4808552338,-3.1682369365,51.4808552338,-3.1682369365,CF24 0UG,Cardiff,CFI,,adult,,,
Castington,"Address: HMP Northumberland, Morpeth, Northumberland, NE65 9XG
Phone:01670 762300
Hours: Open today · 8am–6pmSaturday8am–6pmSunday8am–6pmMonday8am–6pmTuesday8am–6pmWednesday8am–6pmThursday8am–6pmFriday8am–6pm
","HMP Northumberland, Morpeth, Northumberland, NE65 9XG",,,,,NE65 9XG,55.2964636363,-1.6324150818,,,,,,,,,,,,,55.2964636363,-1.6324150818,NE65 9XG,,,,,,,
Channings Wood,"HM Prison Channings Wood is a Category C men's prison, located in the village of Denbury in Devon, England. The prison is operated by Her Majesty's Prison Service. Wikipedia

Opened: July 1974",,July 1974,,male,c ,,,,Channings Wood,Channings Wood,Channings Wood,HMP Channings Wood,SW,http://www.doingtime.co.uk/hmp-channings-wood/,Denbury  Newton Abbot  Devon TQ12 6DW,01803 814 600,Male Cat C,TQ12 6DW,50.5104923393,-3.6518204342,50.5104923393,-3.6518204342,TQ12 6DW,Channings Wood,CWI,,adult,,,
Chelmsford,"HM Prison Chelmsford is a Category B men's prison and Young Offenders Institution, located in Chelmsford, Essex, England. The prison is operated by Her Majesty's Prison Service. Wikipedia

Address: 200 Springfield Park Hill, Chelmsford CM2 6LQ
Phone: 01245 552000
Opened: 1830","200 Springfield Park Hill, Chelmsford CM2 6LQ",1830,,"male, yoi",b ,CM2 6LQ,51.7367243601,0.4846546086,Chelmsford,Chelmsford,Chelmsford,HMP & YOI Chelmsford,EoE,http://www.doingtime.co.uk/hmp-yoi-chelmsford/,200 Springfield Road  Chelmsford Essex  CM2 6LQ,01245 552000,Male Cat B and YOI,CM2 6LQ,51.7367243601,0.4846546086,51.7367243601,0.4846546086,CM2 6LQ,Chelmsford,CDI,,youth,,,
Coldingley,"HM Prison Coldingley is a Category C men's prison, located in the village of Bisley, in Surrey, England. The prison is operated by Her Majesty's Prison Service. Wikipedia

Address: Shaftesbury Rd, Bisley, Woking, Surrey GU24 9EX
Phone: 01483 344300
Opened: 1969","Shaftesbury Rd, Bisley, Woking, Surrey GU24 9EX",1969,,male,c ,GU24 9EX,51.3219067043,-0.643059597,Coldingley,Coldingley,Coldingley,HMP Coldingley,Lon,http://www.doingtime.co.uk/hmp-coldingley/,Shaftesbury Road  Bisley  Woking  Surrey GU24 9EX,01483 344300,Male Cat C,GU24 9EX,51.3219067043,-0.643059597,51.3219067043,-0.643059597,GU24 9EX,Coldingley,CLI,,adult,,,
Cookham Wood,"HM Prison Cookham Wood is a male juveniles' prison and Young Offenders Institution in the village of Borstal in Kent, England. The prison is operated by Her Majesty's Prison Service. Wikipedia

Address: Sir Evelyn Rd, Rochester ME1 3LU
Phone: 01634 202500
Opened: 1978","Sir Evelyn Rd, Rochester ME1 3LU",1978,,"male, yoi",,ME1 3LU,51.3638495319,0.4941629004,Cookham Wood,Cookham Wood,Cookham Wood,HMYOI Cookham Wood,K&S,http://www.doingtime.co.uk/hmyoi-cookham-wood/,Sir Evelyn Road  Rochester  KentME1 3LU,01634 202 500,Male young offenders 15-18,ME1 3LU,51.3638495319,0.4941629004,51.3638495319,0.4941629004,ME1 3LU,Cookham Wood,CKI,,youth,,,
Dartmoor,"HM Prison Dartmoor is a Category C men's prison, located in Princetown, high on Dartmoor in the English county of Devon. Its high granite walls dominate this area of the moor. Wikipedia

Address: Princetown, Yelverton, Devon PL20 6RR
Opened: 1809
Phone: 01822 322000
Owner: Duchy of Cornwall
Architect: Daniel Asher Alexander","Princetown, Yelverton, Devon PL20 6RR",1809,,male,c ,PL20 6RR,50.5492149728,-3.9974867148,Dartmoor,Dartmoor,Dartmoor,HMP Dartmoor,SW,http://www.doingtime.co.uk/hmp-dartmoor/,Princetown  Yelverton  Devon PL20 6RR,01822 322000,Male Cat C,PL20 6RR,50.5492149728,-3.9974867148,50.5492149728,-3.9974867148,PL20 6RR,Dartmoor,DAI,,adult,,,
Deerbolt,"HM Prison Deerbolt is a male juveniles' prison and Young Offenders Institution located in the Village of Startforth, in County Durham, England. The prison is operated by Her Majesty's Prison Service. Wikipedia

Address: Bowes Rd, Barnard Castle DL12 9BG
Phone: 01833 633200
Opened: 1973","Bowes Rd, Barnard Castle DL12 9BG",1973,,"male, yoi",,DL12 9BG,54.5435187431,-1.9371952975,Deerbolt,Deerbolt,Deerbolt,HMYOI Deerbolt,NE,http://www.doingtime.co.uk/hmyoi-deerbolt/,Bowes Road  Barnard Castle  County Durham  DL12 9BG,01833 633200,Male 18-21 Cat C,DL12 9BG,54.5435187431,-1.9371952975,54.5435187431,-1.9371952975,DL12 9BG,Deerbolt,DTI,,youth,,,
Doncaster,"HM Prison Doncaster, is a Category B men's private prison, located in the Marshgate area of Doncaster in South Yorkshire, England. The prison is operated by the Serco. Wikipedia

Address: HMP & YOI Doncaster, Marsh Gate, Doncaster DN5 8UX
Opened: 1994
Phone: 01302 760870
Capacity: 1,145","HMP & YOI Doncaster, Marsh Gate, Doncaster DN5 8UX",1994,1145,"male, yoi",b ,DN5 8UX,53.5251780918,-1.1450031312,Doncaster,Doncaster,Doncaster,HMP Doncaster,Y&H,http://www.doingtime.co.uk/hmp-yoi-doncaster/,Off North Bridge Road  Marshgate  Doncaster  DN5 8UX,01302 764388,Male Cat B,DN5 8UX,53.5251780918,-1.1450031312,53.5251780918,-1.1450031312,DN5 8UX,Doncaster,DNI,,adult,,,
Dorchester,"HM Prison Dorchester was a local men's prison, located in Dorchester in Dorset, England. The prison was operated by Her Majesty's Prison Service, and closed in December 2013. Wikipedia

Address: 7 N Square, Dorchester DT1 1JD
Phone: 01305 714500","7 N Square, Dorchester DT1 1JD",,,male,,DT1 1JD,50.7169223374,-2.4379545422,,,,,,,,,,,,,50.7169223374,-2.4379545422,DT1 1JD,,,,,,,
Dovegate,"Dovegate Prison is a Category B men's private prison, located near Uttoxeter in Staffordshire, England. The prison is operated by the Serco. Wikipedia

Address: Uttoxeter ST14 8XR
Phone: 01283 829400
Capacity: 1,060
Opened: 2001",Uttoxeter ST14 8XR,2001,1060,male,b ,ST14 8XR,52.8706065222,-1.782243209,Dovegate,Dovegate,Dovegate,HMP Dovegate,WM,http://www.doingtime.co.uk/hmp-dovegate/,"Uttoxeter, Staffordshire, ST14 8XR",01283 829400,"Male Cat B, although the Therapeutic wing will also house Cat C",ST14 8XR,52.8706065222,-1.782243209,52.8706065222,-1.782243209,ST14 8XR,,,,adult,,,
Dover (IRC),"Dover Immigration Removal Centre was an immigration detention centre, located in the historic citadel of the Western Heights fortifications in Dover, England. Wikipedia

Address: Western Heights, Dover CT17 9DR
Opened: 1952
Phone: 01304 246400","Western Heights, Dover CT17 9DR",1952,,,,CT17 9DR,51.117550638,1.2972104678,,,,,,,,,,,,,51.117550638,1.2972104678,CT17 9DR,,,,,,,
Downview,"HM Prison Downview is a women's closed category prison. Downview is located on the outskirts of Banstead in Surrey, England, and is immediately adjacent to the southern boundary of Belmont in Greater London. Wikipedia

Address: Sutton Ln, Sutton SM2 5PD
Phone: 020 8196 6300
Opened: 1989","Sutton Ln, Sutton SM2 5PD",1989,,female,,SM2 5PD,51.339082003,-0.1884436559,,,,,,,,,,,,,51.339082003,-0.1884436559,SM2 5PD,Downview,DWI,,,,,
Drake Hall,"HM Prison Drake Hall is a women's closed prison, located near the village of Eccleshall in Staffordshire, England. The prison is operated by Her Majesty's Prison Service. Wikipedia

Address: Stafford ST21 6LQ
Phone: 01785 774100",Stafford ST21 6LQ,,,female,,ST21 6LQ,52.8788311747,-2.2408347695,Drake Hall,Drake Hall,Drake Hall,HMP Drake Hall,WM,http://www.doingtime.co.uk/hmp-drake-hall/,"Eccleshall, Staffordshire, ST21 6LQ",01785 774100,Female,ST21 6LQ,52.8788311747,-2.2408347695,52.8788311747,-2.2408347695,ST21 6LQ,Drake Hall,DHI,,adult,,,
Durham,"HM Prison Durham is a Victorian era local Category B men's prison, located in the Elvet area of Durham in County Durham, England. Built in 1819, the prison continues to be operated by Her Majesty's Prison Service. Wikipedia

Address: Old Elvet, Durham DH1 3HU
Phone: 0191 332 3400","Old Elvet, Durham DH1 3HU",,,male,b ,DH1 3HU,54.7734504218,-1.5668900667,Durham,Durham,Durham,HMP Durham,NE,http://www.doingtime.co.uk/hmp-durham/,Old Elvet  Durham  DH1 3HU,0191 332 3400,Male Cat B,DH1 3HU,54.7734504218,-1.5668900667,54.7734504218,-1.5668900667,DH1 3HU,Durham,DMI,,adult,,,
East Sutton Park,"HM Prison East Sutton Park is a women's open prison and Young Offenders Institution, located in the village of East Sutton, in Kent, England. The prison is operated by Her Majesty's Prison Service. Wikipedia

Address: HMP/YOI East Sutton Park Sutton Valence Maidstone Kent, Workhouse Rd, Maidstone ME17 3DF
Phone: 01622 845000
Opened: 1946","HMP/YOI East Sutton Park Sutton Valence Maidstone Kent, Workhouse Rd, Maidstone ME17 3DF",1946,,"female, yoi",open,ME17 3DF,51.2151271302,0.6137549868,East Sutton Park,East Sutton Park,East Sutton Park,HMP & YOI East Sutton Park,K&S,http://www.doingtime.co.uk/hmp-yoi-east-sutton-park/,Sutton Valence  Maidstone  Kent ME17 3DF,01622 785000,Female Adult and YOI Open Prison,ME17 3DF,51.2151271302,0.6137549868,51.2151271302,0.6137549868,ME17 3DF,East Sutton Park,ESI,,youth,,,
Eastwood Park,"HM Prison Eastwood Park is a women's closed category prison, located in the village of Falfield in Gloucestershire, England. The prison is operated by Her Majesty's Prison Service. Wikipedia

Address: Church Ave, Falfield, Wotton-under-Edge GL12 8DB
Phone: 01454 382100","Church Ave, Falfield, Wotton-under-Edge GL12 8DB",,,female,,GL12 8DB,51.6344535888,-2.4673834574,Eastwood Park,Eastwood Park,Eastwood Park,HMP Eastwood Park,SW,http://www.doingtime.co.uk/hmp-eastwood-park/,Falfield  Wotton-under-Edge  Glos GL12 8DB,01454 382 100,Female Closed,GL12 8DB,51.6344535888,-2.4673834574,51.6344535888,-2.4673834574,GL12 8DB,Eastwood Park,EWI,,adult,,,
Edmunds Hill,"HM Prison Highpoint North is a Category C men's prison, located in the village of Stradishall in Suffolk, England. The prison is operated by Her Majesty's Prison Service. Wikipedia

Opened: 2003 (1977)",,2003 (1977),,male,c ,,,,,,,,,,,,,,,,,,,,,,,,52.1406,0.5132
Elmley (Sheppey),"HM Prison Elmley is a local Category B/C men's prison, located close to the village of Eastchurch on the Isle of Sheppey, Kent. The term 'local' means that this prison holds people on remand to the local courts. Wikipedia

Address: Brabazon Rd, Eastchurch, Sheerness ME12 4DZ
Phone: 01795 802000
Capacity: 985
Opened: 1992","Brabazon Rd, Eastchurch, Sheerness ME12 4DZ",1992,985,male,b/c ,ME12 4DZ,51.3877604182,0.8509597692,Elmley,Sheppey Cluster (Elmley),Elmley,HMP Elmley,K&S,http://www.doingtime.co.uk/hmp-elmley/,Church Road  Eastchurch  Sheerness  Kent ME12 4DZ,01795 802000,Male Cat B/C,ME12 4DZ,51.3877604182,0.8509597692,51.3877604182,0.8509597692,ME12 4DZ,,,,adult,,,
Erlestoke,"HM Prison Erlestoke is a Category C men's prison, located in the village of Erlestoke in Wiltshire, England. Erlestoke is operated by Her Majesty's Prison Service, and is the only prison in Wiltshire. Wikipedia

Address: Erlestoke House, Erlestoke, Devizes SN10 5TU
Phone: 01380 814250","Erlestoke House, Erlestoke, Devizes SN10 5TU",,,male,c ,SN10 5TU,51.2846618834,-2.0441565961,Erlestoke,Erlestoke,Erlestoke,HMP Erlestoke,SW,http://www.doingtime.co.uk/hmp-erlestoke/,Erlestoke  Devizes  Wiltshire SN10 5TU,01380 814250,Male Cat C,SN10 5TU,51.2846618834,-2.0441565961,51.2846618834,-2.0441565961,SN10 5TU,Erlestoke,EEI,,adult,,,
Everthorpe,"Address: 1 Beck Rd, Everthorpe, Brough, North Humberside HU15 1RB
Phone:01430 273000
Hours: Open today · 9–11am, 2–4pmSaturday9–11am, 2–4pmSunday9–11am, 2–4pmMonday9am–5pmTuesday9am–5pmWednesday9am–5pmThursday9am–5pmFriday9am–5pm
","1 Beck Rd, Everthorpe, Brough, North Humberside HU15 1RB",,,,,HU15 1RB,53.768416744,-0.634524513,,,,,,,,,,,,,53.768416744,-0.634524513,HU15 1RB,Everthorpe,EVI,,,,,
Exeter,"HM Prison Exeter is a local men's prison, located in Exeter in the county of Devon, England. The term 'local' means that this prison holds people on remand to the local courts. Exeter Prison is operated by Her Majesty's Prison Service. Wikipedia

Address: 30 New N Rd, Exeter EX4 4EX
Opened: 1850
Phone: 01392 415650","30 New N Rd, Exeter EX4 4EX",1850,,male,,EX4 4EX,50.7280361277,-3.5322092923,Exeter,Exeter,Exeter,HMP Exeter,SW,http://www.doingtime.co.uk/hmp-exeter/,30 New North Road  Exeter  EX4 4EX,01392 415650,Male Cat B,EX4 4EX,50.7280361277,-3.5322092923,50.7280361277,-3.5322092923,EX4 4EX,Exeter,EXI,,adult,,,
Featherstone,"Address: Oak Road, Featherstone, West Midlands WV10 7QD
Phone:01902 799700
","Oak Road, Featherstone, West Midlands WV10 7QD",,,,,WV10 7QD,52.6457252416,-2.1129544754,Featherstone,Featherstone,Featherstone,HMP Featherstone,WM,http://www.doingtime.co.uk/hmp-featherstone/,"New Road, Featherstone, Wolverhampton, WV10 7PU",01902 703000,Male Cat C,WV10 7PU,,,52.6457252416,-2.1129544754,WV10 7PU,Featherstone,FSI,,adult,,,
Feltham,"HM Prison Feltham is a prison for male juveniles and Young Offenders Institution, located near the town of Feltham within the London Borough of Hounslow, in west London, England. Feltham Prison is operated by Her Majesty's Prison Service. Wikipedia

Address: Bedfont Rd, Feltham, Middlesex TW13 4ND
Phone: 020 8844 5000
Opened: 1910
London borough: London Borough of Hounslow","Bedfont Rd, Feltham, Middlesex TW13 4ND",1910,,"male, yoi",,TW13 4ND,51.4415165494,-0.4340821887,Feltham,Feltham,Feltham,HMP & YOI Feltham,Lon,http://www.doingtime.co.uk/hmp-yoi-feltham/,Bedfont Road  Feltham  Middlesex  TW13 4ND,020 8844 5000,Male Young Offenders and Young Adults,TW13 4ND,51.4415165494,-0.4340821887,51.4415165494,-0.4340821887,TW13 4ND,Feltham,FMI,,youth,,,
Feltham,"HM Prison Feltham is a prison for male juveniles and Young Offenders Institution, located near the town of Feltham within the London Borough of Hounslow, in west London, England. Feltham Prison is operated by Her Majesty's Prison Service. Wikipedia

Address: Bedfont Rd, Feltham, Middlesex TW13 4ND
Phone: 020 8844 5000
Opened: 1910
London borough: London Borough of Hounslow","Bedfont Rd, Feltham, Middlesex TW13 4ND",1910,,"male, yoi",,TW13 4ND,51.4415165494,-0.4340821887,Feltham,Feltham,Feltham,HMP & YOI Feltham,Lon,http://www.doingtime.co.uk/hmp-yoi-feltham/,Bedfont Road  Feltham  Middlesex  TW13 4ND,020 8844 5000,Male Young Offenders and Young Adults,TW13 4ND,51.4415165494,-0.4340821887,51.4415165494,-0.4340821887,TW13 4ND,Feltham,FMI,,youth,,,
Ford,"HM Prison Ford is a Category D men's prison, located at Ford, in West Sussex, England, near Arundel and Littlehampton. The prison is operated by Her Majesty's Prison Service. Wikipedia

Address: Ford Rd, Arundel BN18 0BX
Phone: 01903 663000
Capacity: 521
Opened: 1960","Ford Rd, Arundel BN18 0BX",1960,521,male,d ,BN18 0BX,50.8162162317,-0.5798037359,Ford,Ford,Ford,HMP Ford,K&S,http://www.doingtime.co.uk/hmp-ford/,Arundel  West Sussex  BN18 0BX,01903 663000,Male Cat D,BN18 0BX,50.8162162317,-0.5798037359,50.8162162317,-0.5798037359,BN18 0BX,Ford,FDI,,adult,,,
Forest Bank,"HM Prison Forest Bank is a Category B men's private prison, located in the Agecroft area of Pendlebury near Manchester, England. The prison is operated by Sodexo Justice Services. Wikipedia

Address: Forestbank, Swinton, Manchester M27 8FB
Phone: 0161 925 7000
Hours: Open today · Open 24 hoursSaturdayOpen 24 hoursSundayOpen 24 hoursMondayOpen 24 hoursTuesdayOpen 24 hoursWednesdayOpen 24 hoursThursdayOpen 24 hoursFridayOpen 24 hours
Capacity: 1,460
Opened: January 2000","Forestbank, Swinton, Manchester M27 8FB",January 2000,1460,male,b ,M27 8FB,53.5214864323,-2.3093241747,Forest Bank,Forest Bank,Forest Bank,HMP & YOI Forest Bank,NW,http://www.doingtime.co.uk/hmp-yoi-forest-bank/,Agecroft Road  Pendlebury  Salford  M27 8FB,0161 925 7000,Male and Young Offender Cat B,M27 8FB,53.5214864323,-2.3093241747,53.5214864323,-2.3093241747,M27 8FB,Forest Bank,FBI,,youth,,,
Foston Hall,"HM Prison Foston Hall is a women's closed category prison and Young Offenders Institution, located in the village of Foston in Derbyshire, England. The prison is operated by Her Majesty's Prison Service. Wikipedia

Address: Foston, Derby DE65 5DN
Phone: 01283 584300
Opened: 1997","Foston, Derby DE65 5DN",1997,,"female, yoi",,DE65 5DN,52.8820967199,-1.7253611779,Foston Hall,Foston Hall,Foston Hall,HMP Foston Hall,EM,http://www.doingtime.co.uk/hmp-foston-hall/,"Foston,  Derby,  Derbyshire,  DE65 5DN",01283 584300,Closed Female prison,DE65 5DN,52.8820967199,-1.7253611779,52.8820967199,-1.7253611779,DE65 5DN,Foston Hall,FHI,,adult,,,
Frankland,"HM Prison Frankland is a Category A men's prison located in the village of Brasside in County Durham, England. Frankland is operated by Her Majesty's Prison Service. Wikipedia

Address: Brasside, Durham DH1 5YA
Opened: 1980
Phone: 0191 376 5000","Brasside, Durham DH1 5YA",1980,,male,a ,DH1 5YA,54.8054046515,-1.5563897811,Frankland,Frankland,Frankland,HMP Frankland,NE,http://www.doingtime.co.uk/hmp-frankland/,Brasside  Durham  DH1 5YD,0191 376 5000,"Male High Risk & Standard Cat A, Cat B",DH1 5YD,54.8058177017,-1.5514069113,54.8058177017,-1.5514069113,DH1 5YD,Frankland,FKI,,adult,,,
Full Sutton,"HM Prison Full Sutton is a Category A and B men's prison in the village of Full Sutton, near Pocklington in the East Riding of Yorkshire, England. Full Sutton is operated by Her Majesty's Prison Service and holds some 600 inmates. Wikipedia

Address: Full Sutton, York YO41 1PS
Phone: 01759 475100
Opened: 1987","Full Sutton, York YO41 1PS",1987,,male,a ,YO41 1PS,53.9856447714,-0.8719800007,Full Sutton,Full Sutton,Full Sutton,HMP Full Sutton,Y&H,http://www.doingtime.co.uk/hmp-full-sutton/,"Full Sutton, York, YO41 1PS",01759 475100,Male Cat A and Cat B,YO41 1PS,53.9856447714,-0.8719800007,53.9856447714,-0.8719800007,YO41 1PS,Full Sutton,FNI,,adult,,,
Garth,"HM Prison Garth is a Category B men's prison, located in the village of Ulnes Walton, in Lancashire, England. Garth is operated by Her Majesty's Prison Service, and is situated next to HMP Wymott. Wikipedia

Address: Ulnes Walton La, Leyland PR26 8NE
Phone: 01772 443300
Opened: 1988","Ulnes Walton La, Leyland PR26 8NE",1988,,male,b ,PR26 8NE,53.6806470946,-2.7580895699,Garth,Garth,Garth,HMP Garth,NW,http://www.doingtime.co.uk/hmp-garth/,Ulnes Walton  Leyland  Preston  PR26 8NE  (Use PR26 8LW for Sat Nav),01772 443 300,Male Cat B,PR26 8NE,53.6806470946,-2.7580895699,53.6806470946,-2.7580895699,PR26 8NE,Garth,GHI,,adult,,,
Gartree,"HM Prison Gartree is a Category B men's prison, located in Market Harborough, Leicestershire, England. Gartree is operated by Her Majesty's Prison Service. Wikipedia

Address: Gallow Field Rd, Market Harborough LE16 7RP
Phone: 01858 426600
Opened: 1965","Gallow Field Rd, Market Harborough LE16 7RP",1965,,male,b ,LE16 7RP,52.495634808,-0.9614951069,Gartree,Gartree,Gartree,HMP Gartree,EM,http://www.doingtime.co.uk/hmp-gartree/,"Gallow Field Road,  Market Harborough,  Leicestershire,  LE16 7RP",01858 426 600,Male Cat B Lifer centre,LE16 7RP,52.495634808,-0.9614951069,52.495634808,-0.9614951069,LE16 7RP,Gartree,GTI,,adult,,,
Glen Parva,"HM Prison Glen Parva is a male juvenile's prison and Young Offenders Institution, located in Glen Parva, Leicestershire, England. Glen Parva is operated by Her Majesty's Prison Service. Wikipedia

Address: 10 Tigers Rd, Wigston LE18 4TN
Phone: 0116 228 4100
Opened: 1974","10 Tigers Rd, Wigston LE18 4TN",1974,,"male, yoi",,LE18 4TN,52.5833127336,-1.1430291964,Glen Parva,Glen Parva,Glen Parva,HMYOI Glen Parva,EM,http://www.doingtime.co.uk/hmyoi-glen-parva/,"10 Tigers Road,  Wigston,  Leicester,  LE18 4TN",0116 228 4100,"Young offender institution holding sentenced, unsentenced and remanded young male prisoners aged 18-21.",LE18 4TN,52.5833127336,-1.1430291964,52.5833127336,-1.1430291964,LE18 4TN,Glen Parva,GPI,male,youth,,,
Gloucester,"HM Prison Gloucester was a Category B men's prison located in Gloucester, Gloucestershire, England. The prison was operated by Her Majesty's Prison Service and closed in 2013. Wikipedia

Address: 27 Northgate St, Gloucester GL1 2AN
Hours: Open today · 9am–5:30pmSaturday9am–5:30pmSunday10:30am–4:30pmMonday9am–5:30pmTuesday9am–5:30pmWednesday9am–5:30pmThursday9am–5:30pmFriday9am–5:30pm
Phone: 01452 503134
Opened: 1791","27 Northgate St, Gloucester GL1 2AN",1791,,male,b ,GL1 2AN,51.8657486727,-2.245764513,,,,,,,,,,,,,51.8657486727,-2.245764513,GL1 2AN,,,,,,,
Grendon,"HM Prison Grendon is a Category B men's prison, located in the village of Grendon Underwood, in Buckinghamshire, England. Wikipedia

Opened: 1962",,1962,,male,b ,,,,,,,,,,,,,,,,,,,Grendon,GNI,,,,51.8931,-1.0059
Grendon / Spring Hill,"Address: Grendon, Grendon Underwood, Aylesbury HP18 0TL
Phone:01296 445000
","Grendon, Grendon Underwood, Aylesbury HP18 0TL",,,,,HP18 0TL,51.8916539681,-1.0095492773,,,,,,,,,,,,,51.8916539681,-1.0095492773,HP18 0TL,,,,,,,
Guys Marsh,"HM Prison Guys Marsh is a Category C men's prison, located near Shaftesbury, Dorset, England. Guys Marsh is operated by Her Majesty's Prison Service. Wikipedia

Address: Guy's Marsh, Shaftesbury SP7 0AH
Phone: 01747 856400
Opened: 1960","Guy's Marsh, Shaftesbury SP7 0AH",1960,,male,c ,SP7 0AH,50.9853701661,-2.2198263797,Guys Marsh,Guys Marsh,Guys Marsh,HMP Guys Marsh,SW,http://www.doingtime.co.uk/hmp-guys-marsh/,ShaftesburyDorset SP7 0AH,01747 856400,Male Cat C,SP7 0AH,50.9853701661,-2.2198263797,50.9853701661,-2.2198263797,SP7 0AH,Guys Marsh,GMI,,adult,,,
Haslar (IRC),"Address: 2 Dolphin Way, Gosport PO12 2AW
Phone:023 9260 4000
","2 Dolphin Way, Gosport PO12 2AW",,,,,PO12 2AW,50.7821270075,-1.1274563045,,,,,,,,,,,,,50.7821270075,-1.1274563045,PO12 2AW,,,,,,,
Hatfield,"HM Prison Hatfield is a Category D men's prison and Young Offenders Institution, located near Hatfield Woodhouse in South Yorkshire, England. Wikipedia

Address: Thorne Rd, Doncaster DN7 6EL
Phone: 01405 746500","Thorne Rd, Doncaster DN7 6EL",,,"male, yoi",d ,DN7 6EL,53.5867219328,-0.9807016266,Hatfield,Hatfield,Hatfield,HMP & YOI Hatfield,Y&H,http://www.doingtime.co.uk/hmp-yoi-hatfield/,Thorne Road  Hatfield  DONCASTER  South Yorkshire  DN7 6EL,01405 746500,Male Cat D,DN7 6EL,53.5867219328,-0.9807016266,53.5867219328,-0.9807016266,DN7 6EL,,,,adult,,,
Haverigg,"HM Prison Haverigg is a Category C men's prison, located in village of Haverigg in Cumbria, England. Haverigg Prison is operated by Her Majesty's Prison Service, and is part of the HMP North Lancashire and Cumbria Estate. Wikipedia

Address: North Ln, Haverigg, Millom LA18 4NA
Phone: 01229 713000
Opened: 1967","North Ln, Haverigg, Millom LA18 4NA",1967,,male,c ,LA18 4NA,54.200673693,-3.3124554549,Haverigg,Haverigg,Haverigg,HMP Haverigg,NW,http://www.doingtime.co.uk/hmp-haverigg/,Millom  LA18 4NA,01229 713000,Male Cat C/D,LA18 4NA,54.200673693,-3.3124554549,54.200673693,-3.3124554549,LA18 4NA,Haverigg,HVI,,adult,,,
Hewell,"HM Prison Hewell is a multiple security category men's prison in the village of Tardebigge in Worcestershire, England. The prison is operated by Her Majesty's Prison Service. Wikipedia

Address: Hewell Ln, Redditch B97 6QS
Phone: 01527 785000
Opened: 2008 (1946)","Hewell Ln, Redditch B97 6QS",2008 (1946),,male,,B97 6QS,52.3247838063,-1.9865887771,Hewell,Hewell,Hewell,HMP Hewell,WM,http://www.doingtime.co.uk/hmp-hewell/,Hewell Lane  Redditch  Worcestershire  B97 6QS,01527 785000,Male Cat B & Cat D,B97 6QS,52.3247838063,-1.9865887771,52.3247838063,-1.9865887771,B97 6QS,Hewell,HEI,,adult,,,
High Down,"HM Prison High Down is a Category B men's local prison. High Down is located on the outskirts of Banstead in Surrey, England, and is immediately adjacent to the southern boundary of Belmont in Greater London. Wikipedia

Address: High Down Ln, Sutton SM2 5PJ
Phone: 020 7147 6300","High Down Ln, Sutton SM2 5PJ",,,male,b ,SM2 5PJ,51.3368405722,-0.1887342995,High Down,High Down,High Down,HMP High Down,Lon,http://www.doingtime.co.uk/hmp-high-down/,High Down Lane  Sutton  Surrey  SM2 5PJ,0207 147 6300,Male Cat B,SM2 5PJ,51.3368405722,-0.1887342995,51.3368405722,-0.1887342995,SM2 5PJ,High Down,HOI,,adult,,,
Highpoint,"HM Prison Highpoint South is a Category C men's prison, located in the village of Stradishall in Suffolk, England. The prison is operated by Her Majesty's Prison Service. Wikipedia

Address: Stradishall, Newmarket CB8 9YG
Phone: 01440 743100
Opened: 1975","Stradishall, Newmarket CB8 9YG",1975,,male,c ,CB8 9YG,52.1372273774,0.5142244834,,,,,,,,,,,,,52.1372273774,0.5142244834,CB8 9YG,Highpoint,HPI,,,,,
Highpoint,"HM Prison Highpoint South is a Category C men's prison, located in the village of Stradishall in Suffolk, England. The prison is operated by Her Majesty's Prison Service. Wikipedia

Address: Stradishall, Newmarket CB8 9YG
Phone: 01440 743100
Opened: 1975","Stradishall, Newmarket CB8 9YG",1975,,male,c ,CB8 9YG,52.1372273774,0.5142244834,,,,,,,,,,,,,52.1372273774,0.5142244834,CB8 9YG,Highpoint,HPI,,,,,
Highpoint (North and South),"Address: Stradishall, Newmarket CB8 9YG
Phone:01440 743100
","Stradishall, Newmarket CB8 9YG",,,,,CB8 9YG,52.1372273774,0.5142244834,Highpoint,,Highpoint,HMP Highpoint,EoE,http://www.doingtime.co.uk/hmp-highpoint/,"Stradishall,  Newmarket,  Suffolk, CB8 9YG",01440 743100,Male Cat C,CB8 9YG,52.1372273774,0.5142244834,52.1372273774,0.5142244834,CB8 9YG,,,,adult,,,
Hindley,"HM Prison Hindley is a male prison, located in the village of Bickershaw in Greater Manchester, England. Hindley is operated by Her Majesty's Prison Service. Wikipedia

Address: Gibson St, Bickershaw, Wigan WN2 5TH
Phone: 01942 663100
Opened: 1961","Gibson St, Bickershaw, Wigan WN2 5TH",1961,,male,,WN2 5TH,53.5177524846,-2.5769492967,Hindley,Hindley,Hindley,HMYOI Hindley,NW,http://www.doingtime.co.uk/hmyoi-hindley/,Gibson Street  Bickershaw  Wigan WN2 5TH,01942 663100,Male YOs and under 18s,WN2 5TH,53.5177524846,-2.5769492967,53.5177524846,-2.5769492967,WN2 5TH,Hindley,HII,,youth,,,
Hollesley Bay,"HM Prison Hollesley Bay, known locally as Hollesley Bay Colony or simply The Colony, is a Category D men's prison and Young Offenders Institution, located in the village of Hollesley, about 8 miles from the town of Woodbridge in Suffolk, England. Wikipedia

Address: Hollesley Bay Colony, Rectory Rd, Hollesley, Woodbridge IP12 3JW
Phone: 01394 412400
Opened: 1938","Hollesley Bay Colony, Rectory Rd, Hollesley, Woodbridge IP12 3JW",1938,,"male, yoi",d ,IP12 3JW,52.0512694616,1.4513407306,Hollesley Bay,Hollesley Bay,Hollesley Bay,HMP & YOI Hollesley Bay,EoE,http://www.doingtime.co.uk/hmp-yoi-hollesley-bay/,Woodbridge  Suffolk  IP12 3JW,01394 412400,Male Cat D,IP12 3JW,52.0512694616,1.4513407306,52.0512694616,1.4513407306,IP12 3JW,,,,adult,,,
Holloway,"HM Prison Holloway is a closed category prison for adult women and young offenders in Holloway, London, England, operated by Her Majesty's Prison Service. It is the largest women's prison in western Europe. Wikipedia

Address: Parkhurst Rd, London N7 0NU
Opened: 1852
Hours: Open today · 9am–3pmSaturday9am–3pmSunday9am–3pmMonday9am–4pmTuesday9am–4pmWednesday9am–4pmThursday9am–4pmFriday9am–4pm
Phone: 020 7979 4400
London borough: London Borough of Islington","Parkhurst Rd, London N7 0NU",1852,,"female, yoi",,N7 0NU,51.5540467402,-0.1252036867,Holloway,Holloway,Holloway,HMP & YOI Holloway,Lon,http://www.doingtime.co.uk/hmp-yoi-holloway/,Parkhurst Road  London  N7 0NU,020 7979 4400,Female Adult & Young Offenders,N7 0NU,51.5540467402,-0.1252036867,51.5540467402,-0.1252036867,N7 0NU,Holloway,HYI,,youth,,,
Holme House,"HM Prison Holme House is a Category B men's prison, located in Stockton-on-Tees, County Durham, England. The prison is operated by Her Majesty's Prison Service. Wikipedia

Address: Holme House Rd, Stockton-on-Tees TS18 2QU
Phone: 01642 744000
Hours: Open today · Open 24 hoursSaturdayOpen 24 hoursSundayOpen 24 hoursMondayOpen 24 hoursTuesdayOpen 24 hoursWednesdayOpen 24 hoursThursdayOpen 24 hoursFridayOpen 24 hours
Opened: 1992","Holme House Rd, Stockton-on-Tees TS18 2QU",1992,,male,b ,TS18 2QU,54.5777947529,-1.2931084036,Holme House,Holme House,Holme House,HMP Holme House,NE,http://www.doingtime.co.uk/hmp-holme-house/,Holme House Road  Stockton on Tees  TS18 2QU,01642 744000,Male Cat B,TS18 2QU,54.5777947529,-1.2931084036,54.5777947529,-1.2931084036,TS18 2QU,Holme House,HHI,,adult,,,
Hull,"HM Prison Hull is a Category B men's local prison located in Kingston upon Hull in the East Riding of Yorkshire, England. The term 'local' means that this prison holds people on remand to the local courts. Wikipedia

Address: Hedon Rd, Hull HU9 5LS
Opened: 1870
Phone: 01482 282200","Hedon Rd, Hull HU9 5LS",1870,,male,b ,HU9 5LS,53.748264012,-0.2967754787,Hull,Hull,Hull,HMP Hull,Y&H,http://www.doingtime.co.uk/hmp-hull/,Hedon Road  Hull  HU9 5LS,01482 282200,Male Cat B/C,HU9 5LS,53.748264012,-0.2967754787,53.748264012,-0.2967754787,HU9 5LS,Hull,HLI,,adult,,,
Humber,"Address: 1 Beck Rd, Everthorpe, Brough, North Humberside HU15 1RB
Phone:01430 273000
Hours: Open today · 9–11am, 2–4pmSaturday9–11am, 2–4pmSunday9–11am, 2–4pmMonday9am–5pmTuesday9am–5pmWednesday9am–5pmThursday9am–5pmFriday9am–5pm
","1 Beck Rd, Everthorpe, Brough, North Humberside HU15 1RB",,,,,HU15 1RB,53.768416744,-0.634524513,Humber,,Humber,HMP Humber,Y&H,http://www.doingtime.co.uk/hmp-humber/,"1, Beck Road,  Everthorpe  Brough,  East Yorkshire HU15 1RB",01430 426500,Male Cat C,HU15 1RB,53.768416744,-0.634524513,53.768416744,-0.634524513,HU15 1RB,,,,adult,,,
Huntercombe,"HM Prison Huntercombe is a Category C men's prison, located near Nuffield in Oxfordshire, England. Huntercombe is operated by Her Majesty's Prison Service. Wikipedia

Address: Nuffield, Henley-on-Thames RG9 5SB
Phone: 01491 643100
Opened: 1946","Nuffield, Henley-on-Thames RG9 5SB",1946,,male,c ,RG9 5SB,51.5893999889,-1.0182421448,Huntercombe,Huntercombe,Huntercombe,HMP Huntercombe,SC,http://www.doingtime.co.uk/hmp-huntercombe/,Nuffield  Henley-on-Thames  Oxfordshire  RG9 5SB,01491 643 100,"Male Cat C, foreign nationals",RG9 5SB,51.5893999889,-1.0182421448,51.5893999889,-1.0182421448,RG9 5SB,Huntercombe,HCI,,adult,,,
Isis,"Address: Western Way, London SE28 0EB
Phone:020 8331 4400
","Western Way, London SE28 0EB",,,,,SE28 0EB,51.496846124,0.0927039036,Isis,Isis,Isis,HMP & YOI Isis,Lon,http://www.doingtime.co.uk/hmp-yoi-isis/,Western Way  Thamesmead  SE28 0NZ,020 3356 4000,Male Cat C aged under 30,SE28 0NZ,,,51.496846124,0.0927039036,SE28 0NZ,Isis,ISI,,adult,,,
Isle of Wight,"HMP Isle of Wight is a prison on the Isle of Wight, UK, combining the two island prisons, Albany and Parkhurst. The two former prisons along with Camp Hill were merged in 2009 and each site still retained its old name. Wikipedia

Address: Albany House, Newport PO30 5RS
Phone: 01983 634000
Opened: 2009","Albany House, Newport PO30 5RS",2009,,,,PO30 5RS,50.7119973698,-1.3048961823,Isle of Wight,,Isle of Wight,HMP Isle of Wight,SC,http://www.doingtime.co.uk/hmp-isle-of-wight/,"Albany House,  Newport,  Isle of Wight  PO30 5RS",01983 634000,Male Cat B,PO30 5RS,50.7119973698,-1.3048961823,50.7119973698,-1.3048961823,PO30 5RS,,,,adult,,,
Kennet,"HM Prison Kennet is a Category C men's prison, located in Parkbourn, Maghull, in the Metropolitan Borough of Sefton in Merseyside, England. The prison is operated by Her Majesty's Prison Service. The prison is due to close in 2017. Wikipedia

Address: Parkbourne, Maghull, Liverpool L31 1HX
Phone: 0151 213 3000
Opened: 2007","Parkbourne, Maghull, Liverpool L31 1HX",2007,,male,c ,L31 1HX,53.5181172265,-2.9060363863,Kennet,Kennet,Kennet,HMP Kennet,NW,http://www.doingtime.co.uk/hmp-kennet/,Parkbourn  Maghull  Liverpool  Merseyside L31 1HX,0151 213 3000,Male cat C/D,L31 1HX,53.5181172265,-2.9060363863,53.5181172265,-2.9060363863,L31 1HX,Kennet,KTI,,adult,,,
Kingston,"HM Prison Kingston is a former Category B/C men's prison, located in the Kingston area of Portsmouth, in Hampshire, England. Prior to closure, the prison was operated by Her Majesty's Prison Service. Wikipedia

Opened: 1877",,1877,,male,b/c ,,,,,,,,,,,,,,,,,,,,,,,,50.8035,-1.0656
Kirkham,"HM Prison Kirkham is a Category D men's prison, located southwest of Kirkham in Lancashire, England. The prison is operated by Her Majesty's Prison Service. Wikipedia

Address: Freckleton Rd, Kirkham PR4 2RN
Phone: 01772 675400
Capacity: 630
Opened: 1962","Freckleton Rd, Kirkham PR4 2RN",1962,630,male,d ,PR4 2RN,53.7749047025,-2.8732048879,Kirkham,Kirkham,Kirkham,HMP Kirkham,NW,http://www.doingtime.co.uk/hmp-kirkham/,Freckleton Road  Kirkham  Preston  Lancs PR4 2RN,01772 675 400,Male Cat D,PR4 2RN,53.7749047025,-2.8732048879,53.7749047025,-2.8732048879,PR4 2RN,Kirkham,KMI,,adult,,,
Kirklevington Grange,"HM Prison Kirklevington Grange is a Category D men's prison,and young offenders institute located in the village of Kirklevington, in North Yorkshire, England. The prison is operated by Her Majesty's Prison Service. Wikipedia

Address: Kirklevington Grange, Yarm, Cleveland TS15 9PA
Phone: 01642 792600
Opened: 1992","Kirklevington Grange, Yarm, Cleveland TS15 9PA",1992,,"male, yoi",d ,TS15 9PA,54.4950191289,-1.3396082092,Kirklevington Grange,Kirklevington Grange,Kirklevington Grange,HMP Kirlevington Grange,NE,http://www.doingtime.co.uk/hmp-kirklevington-grange/,Yarm  Cleveland  TS15 9PA,01642 792600,Male Cat C/D,TS15 9PA,54.4950191289,-1.3396082092,54.4950191289,-1.3396082092,TS15 9PA,Kirklevington Grange,KVI,,adult,,,
Lancaster,"HM Prison Lancaster Farms is a category C male prison, located on the outskirts of Lancaster, Lancashire, England. The prison is operated by Her Majesty's Prison Service, and is part of the HMP North Lancashire and Cumbria Estate. Wikipedia

Address: Stone Row Head, Lancaster LA1 3QZ
Phone: 01524 563450
Opened: 1993","Stone Row Head, Lancaster LA1 3QZ",1993,,male,c ,LA1 3QZ,54.0526998053,-2.7720662169,,,,,,,,,,,,,54.0526998053,-2.7720662169,LA1 3QZ,,,,,,,
Lancaster Farms,"HM Prison Lancaster Farms is a category C male prison, located on the outskirts of Lancaster, Lancashire, England. The prison is operated by Her Majesty's Prison Service, and is part of the HMP North Lancashire and Cumbria Estate. Wikipedia

Address: Stone Row Head, Lancaster LA1 3QZ
Phone: 01524 563450
Opened: 1993","Stone Row Head, Lancaster LA1 3QZ",1993,,male,c ,LA1 3QZ,54.0526998053,-2.7720662169,Lancaster Farms,Lancaster Farms,Lancaster Farms,HMYOI Lancaster Farms,NW,http://www.doingtime.co.uk/hmyoi-lancaster-farms/,Stone Row Head  Quernmore Road  LancasterLA1 3QZ,01524 563450,Male YO,LA1 3QZ,54.0526998053,-2.7720662169,54.0526998053,-2.7720662169,LA1 3QZ,Lancaster Farms,LFI,,youth,,,
Latchmere House,"Latchmere House is a building and grounds adjacent to Ham Common in the Ham area of the London Borough of Richmond upon Thames, in south west London, England. Part of the site is also in the Royal Borough of Kingston upon Thames. Wikipedia

Address: Richmond
Opened: 1948
Capacity: 207
Architectural style: Victorian architecture",Richmond,1948,207,,,,,,,,,,,,,,,,,,,,,,,,,,51.4284,-0.2966
Leeds,"HM Prison Leeds is a Category B men's prison, located at Gloucester Terrace in the Armley area of Leeds in West Yorkshire, England, which opened in 1847. Wikipedia

Address: 2 Gloucester Terrace, Stanningley Road, Leeds LS12 2TJ
Opened: 1847
Phone: 0113 203 2600","2 Gloucester Terrace, Stanningley Road, Leeds LS12 2TJ",1847,,male,b ,LS12 2TJ,53.7957276817,-1.576170178,Leeds,Leeds,Leeds,HMP Leeds,Y&H,http://www.doingtime.co.uk/hmp-leeds/,"2 Gloucester Terrace  Stanningley Road,  Leeds  West Yorkshire  LS12 2TJ",0113 203 2600,Cat B Male,LS12 2TJ,53.7957276817,-1.576170178,53.7957276817,-1.576170178,LS12 2TJ,Leeds,LEI,male,adult,,,
Leicester,"HM Prison Leicester is a local men's prison, located in the Southfields area of Leicester, Leicestershire, England. The term 'local' means that the prison holds people on remand to the local courts, as well as sentenced prisoners. Wikipedia

Address: 116 Welford Rd, Leicester LE2 7AJ
Opened: 1828
Phone: 0116 228 3000","116 Welford Rd, Leicester LE2 7AJ",1828,,male,,LE2 7AJ,52.6277011358,-1.1325446672,Leicester,Leicester,Leicester,HMP Leicester,EM,http://www.doingtime.co.uk/hmp-leicester/,"116, Welford Road,  Leicester,  LE2 7AJ",01162 283 000,Local Male Cat B,LE2 7AJ,52.6277011358,-1.1325446672,52.6277011358,-1.1325446672,LE2 7AJ,Leicester,LCI,male,adult,,,
Lewes,"HM Prison Lewes is a local men's prison, located in Lewes in East Sussex, England. The term 'local' means that the prison holds people on remand to the local courts, as well as sentenced prisoners. Wikipedia

Address: 1 Brighton Rd, Lewes BN7 1EA
Phone: 01273 785100
Opened: 1853","1 Brighton Rd, Lewes BN7 1EA",1853,,male,,BN7 1EA,50.8728674031,-0.005302734,Lewes,Lewes,Lewes,HMP Lewes,K&S,http://www.doingtime.co.uk/hmp-lewes/,1 Brighton Road  Lewes  East Sussex  BN7 1EA,01273 785 100,Male Cat B,BN7 1EA,50.8728674031,-0.005302734,50.8728674031,-0.005302734,BN7 1EA,Lewes,LWI,,adult,,,
Leyhill,"HM Prison Leyhill is a Category D men's prison, located in the parish of Tortworth in Gloucestershire, England. Leyhill Prison is operated by Her Majesty's Prison Service. Wikipedia
",,,,male,d ,,,,Leyhill,Leyhill,Leyhill,HMP Leyhill,SW,http://www.doingtime.co.uk/hmp-leyhill/,Wotton-under-Edge  Gloucester  GL12 8BT,01454 264000,Cat D Male,GL12 8BT,51.6280365796,-2.4367813318,51.6280365796,-2.4367813318,GL12 8BT,Leyhill,LYI,male,adult,,,
Lincoln,"HM Prison Lincoln is a Category B men's prison, located in Lincoln, Lincolnshire, England. The prison is operated by Her Majesty's Prison Service. Wikipedia

Address: Lincoln LN2 4BD
Capacity: 709
Opened: 1872",Lincoln LN2 4BD,1872,709,male,b ,LN2 4BD,53.2354514863,-0.5179672062,Lincoln,Lincoln,Lincoln,HMP Lincoln,EM,http://www.doingtime.co.uk/hmp-lincoln/,"Greetwell Road,  Lincoln,  LN2 4BD",01522 663000,Male Cat B,LN2 4BD,53.2354514863,-0.5179672062,53.2354514863,-0.5179672062,LN2 4BD,Lincoln,LII,,adult,,,
Lindholme (IRC),"HM Prison Lindholme is a Category C/D men's prison located near Hatfield Woodhouse in the Metropolitan Borough of Doncaster, South Yorkshire, England. Wikipedia

Address: Bawtry Road, Doncaster DN7 6EE
Opened: 1985
Phone: 01302 524700","Bawtry Road, Doncaster DN7 6EE",1985,,male,c/d ,DN7 6EE,53.5477972918,-0.9645971728,,,,,,,,,,,,,53.5477972918,-0.9645971728,DN7 6EE,,,,,,,
Littlehey,"HM Prison Littlehey is a Category C male sex offenders prison in the village of Perry near Huntingdon in Cambridgeshire, England. Littlehey Prison is operated by Her Majesty's Prison Service. Wikipedia

Address: Perry, Huntingdon PE28 0SR
Hours: Open today · 7:30am–5:15pmSaturday7:30am–5:15pmSunday7:30am–5:15pmMonday7:30am–7:30pmTuesday7:30am–7:30pmWednesday7:30am–7:30pmThursday7:30am–7:30pmFriday7:30am–5:15pm
Phone: 01480 335000
Opened: 1988","Perry, Huntingdon PE28 0SR",1988,,male,c ,PE28 0SR,52.2807943941,-0.3122761992,Littlehey,Littlehey,Littlehey,HMP & YOI Littlehey,EoE,http://www.doingtime.co.uk/hmp-yoi-littlehey/,Perry  Huntingdon  Cambridgeshire PE28 0SR,01480 335 000,Male Cat C,PE28 0SR,52.2807943941,-0.3122761992,52.2807943941,-0.3122761992,PE28 0SR,Littlehey,LTI,,adult,,,
Liverpool,"HM Prison Liverpool is a category B/C local men's prison, located in the Walton area of Liverpool in England. The prison is operated by Her Majesty's Prison Service. It originally housed male and female inmates. Wikipedia

Address: 68 Hornby Rd, Liverpool L9 3DF
Opened: 1855
Phone: 0151 530 4000
Hours: Closed today SaturdayClosedSundayClosedMonday8:30am–4:30pmTuesday8:30am–4:30pmWednesday8:30am–4:30pmThursday8:30am–4:30pmFriday8:30am–4:30pm","68 Hornby Rd, Liverpool L9 3DF",1855,,"male, female",b/c ,L9 3DF,53.4575433857,-2.9691658612,Liverpool,Liverpool,Liverpool,HMP Liverpool,NW,http://www.doingtime.co.uk/hmp-liverpool/,68 Hornby Road  Liverpool  L9 3DF,0151 530 4000,Cat B local serving Merseyside,L9 3DF,53.4575433857,-2.9691658612,53.4575433857,-2.9691658612,L9 3DF,Liverpool,LPI,,adult,,,
Liverpool,"HM Prison Liverpool is a category B/C local men's prison, located in the Walton area of Liverpool in England. The prison is operated by Her Majesty's Prison Service. It originally housed male and female inmates. Wikipedia

Address: 68 Hornby Rd, Liverpool L9 3DF
Opened: 1855
Phone: 0151 530 4000
Hours: Closed today SaturdayClosedSundayClosedMonday8:30am–4:30pmTuesday8:30am–4:30pmWednesday8:30am–4:30pmThursday8:30am–4:30pmFriday8:30am–4:30pm","68 Hornby Rd, Liverpool L9 3DF",1855,,"male, female",b/c ,L9 3DF,53.4575433857,-2.9691658612,Liverpool,Liverpool,Liverpool,HMP Liverpool,NW,http://www.doingtime.co.uk/hmp-liverpool/,68 Hornby Road  Liverpool  L9 3DF,0151 530 4000,Cat B local serving Merseyside,L9 3DF,53.4575433857,-2.9691658612,53.4575433857,-2.9691658612,L9 3DF,Liverpool,LPI,,adult,,,
Long Lartin,"HM Prison Long Lartin is a Category A men's prison, located in the village of South Littleton in the District of Wychavon in Worcestershire, England. It is operated by Her Majesty's Prison Service. Wikipedia

Address: South Littleton WR11 8TZ
Phone: 01386 295100
Opened: 1971",South Littleton WR11 8TZ,1971,,male,a ,WR11 8TZ,52.1096435768,-1.8549862276,Long Lartin,Long Lartin,Long Lartin,HMP Long Lartin,WM,http://www.doingtime.co.uk/hmp-long-lartin/,"South Littleton, Evesham, Worcestershire  WR11 8TZ",01386 295 100,Male Cat A & B,WR11 8TZ,52.1096435768,-1.8549862276,52.1096435768,-1.8549862276,WR11 8TZ,Long Lartin,LLI,,adult,,,
Low Newton,"HM Prison Frankland is a Category A men's prison located in the village of Brasside in County Durham, England. Frankland is operated by Her Majesty's Prison Service. Wikipedia

Address: Brasside, Durham DH1 5YA
Opened: 1980
Phone: 0191 376 5000","Brasside, Durham DH1 5YA",1980,,male,a ,DH1 5YA,54.8054046515,-1.5563897811,Low Newton,Low Newton,Low Newton,HMP & YOI Low Newton,NE,http://www.doingtime.co.uk/hmp-low-newton/,Brasside  Durham  DH1 5YA,0191 3764000,Female Closed,DH1 5YA,54.8054046515,-1.5563897811,54.8054046515,-1.5563897811,DH1 5YA,Low Newton,LNI,,adult,,,
Lowdham Grange,"HM Prison Lowdham Grange is a Category B men's private prison, located in the village of Lowdham in Nottinghamshire, England. The prison is operated by the Serco. Wikipedia

Address: Old Epperstone Rd, Lowdham, Nottingham NG14 7BZ
Phone: 0115 966 9200
Capacity: 920
Opened: 1998","Old Epperstone Rd, Lowdham, Nottingham NG14 7BZ",1998,920,male,b ,NG14 7BZ,53.0201967201,-1.0197283452,Lowdham Grange,Lowdham Grange,Lowdham Grange,HMP Lowdham Grange,EM,http://www.doingtime.co.uk/hmp-lowdham-grange/,"Old Epperstone Road, Lowdham, Nottingham  NG14 7DA",0115 966 9200,Male Cat B,NG14 7DA,53.0161299794,-1.0380213676,53.0161299794,-1.0380213676,NG14 7DA,Lowdham Grange,LGI,,adult,,,
Maidstone,"HM Prison Maidstone is a Category C men's prison, located in Maidstone, Kent, England. The prison is operated by Her Majesty's Prison Service. Wikipedia

Address: 36 County Rd, Maidstone ME14 1UZ
Opened: 1819
Phone: 01622 775300
Architect: Daniel Asher Alexander","36 County Rd, Maidstone ME14 1UZ",1819,,male,c ,ME14 1UZ,51.2782753122,0.5247610693,Maidstone,Maidstone,Maidstone,HMP Maidstone,K&S,http://www.doingtime.co.uk/hmp-maidstone/,36 County Road  Maidstone  Kent ME14 1UZ,01622 775 300,Male Cat C and Foreign Nationals,ME14 1UZ,51.2782753122,0.5247610693,51.2782753122,0.5247610693,ME14 1UZ,Maidstone,MSI,,adult,,,
Manchester,"HM Prison Manchester is a high-security male prison in Manchester, England, operated by Her Majesty's Prison Service. It is a local prison, holding prisoners remanded into custody from courts in the Manchester area and Category A prisoners. Wikipedia

Address: 1 Southall St, Manchester M60 9AH
Opened: June 25, 1868
Phone: 0161 817 5600
Hours: Open today · 9am–5pmSaturday9am–5pmSunday2–5pmMonday9am–5pmTuesday9am–5pmWednesday9am–5pmThursday9am–5pmFriday9am–5pm
Architect: Alfred Waterhouse","1 Southall St, Manchester M60 9AH","June 25, 1868",,male,a ,M60 9AH,53.4921882066,-2.2456861074,Manchester,Manchester,Manchester,HMP Manchester,NW,http://www.doingtime.co.uk/hmp-manchester/,1 Southall Street  Manchester  M60 9AH,0161 817 5600,Male Cat A and Cat B,M60 9AH,53.4921882066,-2.2456861074,53.4921882066,-2.2456861074,M60 9AH,Manchester,MRI,,adult,,,
Moorland,"HM Prison Moorland is a Category C men's prison and Young Offenders Institution, near Hatfield Woodhouse in South Yorkshire, England. The prison is operated by Her Majesty's Prison Service, and is jointly managed with the nearby Hatfield Prison. Wikipedia

Address: Hatfield House, Bawtry Rd, Doncaster, South Yorkshire DN7 6BW
Hours: Open today · 8am–5pmSaturday8am–5pmSunday8am–5pmMonday8am–5pmTuesday8am–5pmWednesday8am–5pmThursday8am–5pmFriday8am–5pm
Phone: 01302 523000","Hatfield House, Bawtry Rd, Doncaster, South Yorkshire DN7 6BW",,,"male, yoi",c ,DN7 6BW,53.5485758622,-0.9714908088,Moorland,Moorland,Moorland,HMP & YOI Moorland,Y&H,http://www.doingtime.co.uk/hmp-yoi-moorlands/,Bawtry Road  Hatfield Woodhouse  Doncaster  South Yorkshire  DN7 6BW,01302 523000,Male Cat C,DN7 6BW,53.5485758622,-0.9714908088,53.5485758622,-0.9714908088,DN7 6BW,,,,adult,,,
Moorland / Hatfield,"HM Prison Moorland is a Category C men's prison and Young Offenders Institution, near Hatfield Woodhouse in South Yorkshire, England. The prison is operated by Her Majesty's Prison Service, and is jointly managed with the nearby Hatfield Prison. Wikipedia

Address: Hatfield House, Bawtry Rd, Doncaster, South Yorkshire DN7 6BW
Hours: Open today · 8am–5pmSaturday8am–5pmSunday8am–5pmMonday8am–5pmTuesday8am–5pmWednesday8am–5pmThursday8am–5pmFriday8am–5pm
Phone: 01302 523000","Hatfield House, Bawtry Rd, Doncaster, South Yorkshire DN7 6BW",,,"male, yoi",c ,DN7 6BW,53.5485758622,-0.9714908088,,,,,,,,,,,,,53.5485758622,-0.9714908088,DN7 6BW,,,,,,,
Moorland/ Moorland Open,"Address: Thorne Rd, Doncaster DN7 6EL
Phone:01405 746500
","Thorne Rd, Doncaster DN7 6EL",,,,,DN7 6EL,53.5867219328,-0.9807016266,,,,,,,,,,,,,53.5867219328,-0.9807016266,DN7 6EL,,,,,,,
Morton Hall (IRC),"IRC Morton Hall is an Immigration Removal Centre located in the village of Morton Hall in Lincolnshire, England. The centre is operated by Her Majesty's Prison Service, and was previously a women's prison. Wikipedia

Address: Swinderby, Lincoln, Lincoln LN6 9PT
Phone: 01522 666700
Opened: 1985","Swinderby, Lincoln, Lincoln LN6 9PT",1985,,female,,LN6 9PT,53.1679431076,-0.6877235892,,,,,,,,,,,,,53.1679431076,-0.6877235892,LN6 9PT,,,,,,,
Mount,"HM Prison The Mount is a Category C men's prison, located on the outskirts of Bovingdon village in Hertfordshire, England. The Mount Prison is operated by Her Majesty's Prison Service. Wikipedia

Address: Molyneaux Ave, Bovingdon HP3 0NZ
Phone: 01442 836300
Opened: 1987","Molyneaux Ave, Bovingdon HP3 0NZ",1987,,male,c ,HP3 0NZ,51.7230546975,-0.5413075593,The Mount,The Mount,The Mount,HMP The Mount,EoE,http://www.doingtime.co.uk/hmp-the-mount/,Molyneaux Avenue  Bovingdon  Hemel Hempstead  Herts HP3 0NZ,01442 836300,Male Cat C,HP3 0NZ,51.7230546975,-0.5413075593,51.7230546975,-0.5413075593,HP3 0NZ,,,,adult,,,
New Hall,"HM Prison New Hall is a Closed Category prison for female adults, juveniles and young offenders. The prison is located in the village of Flockton in West Yorkshire, England. New Hall is operated by Her Majesty's Prison Service. Wikipedia

Address: New Hall Way, Flockton, Wakefield WF4 4AX
Phone: 01924 803000","New Hall Way, Flockton, Wakefield WF4 4AX",,,"female, yoi",,WF4 4AX,53.6367179631,-1.6087301126,New Hall,New Hall,New Hall,HMP New Hall,EM,http://www.doingtime.co.uk/hmp-new-hall/,"Dial Wood,  Flockton,  Wakefield,  West Yorkshire,  WF4 4XX",01924 803 000,Female and YO,WF4 4XX,53.6361420025,-1.6129101879,53.6361420025,-1.6129101879,WF4 4XX,New Hall,NHI,,youth,,,
North Sea Camp,"HM Prison North Sea Camp is a men's open prison, located on the edge of the parish of Freiston in Lincolnshire, England. North Sea Camp is operated by Her Majesty's Prison Service. Wikipedia

Address: Croppers Lane, Freiston, Boston PE22 0QX
Phone: 01205 769300
Opened: 1935","Croppers Lane, Freiston, Boston PE22 0QX",1935,,male,open,PE22 0QX,52.9399677916,0.0634292945,North Sea Camp,North Sea Camp,North Sea Camp,HMP North Sea Camp,EM,http://www.doingtime.co.uk/hmp-north-sea-camp/,"Croppers Lane,  Freiston,  Boston,  Lincs,  PE22 0QX",01205 769300,Male Cat D,PE22 0QX,52.9399677916,0.0634292945,52.9399677916,0.0634292945,PE22 0QX,North Sea Camp,NSI,,adult,,,
Northallerton,"HM Prison Northallerton was a prison in Northallerton, North Yorkshire, England. It operated from 1788 until December 2013. Wikipedia

Address: East Rd, Northallerton DL6 1NW
Phone: 01609 785100
Opened: 1788","East Rd, Northallerton DL6 1NW",1788,,,,DL6 1NW,,,,,,,,,,,,,,,,,DL6 1NW,,,,,,54.338611,-1.430833
Northumberland,"HM Prison Acklington was a Category C men's prison, located near the village of Acklington a few miles from Amble), in Northumberland, England. Acklington Prison was operated by Her Majesty's Prison Service. Wikipedia

Address: HMP Northumberland, Morpeth, Northumberland, NE65 9XG
Hours: Open today · 8am–6pmSaturday8am–6pmSunday8am–6pmMonday8am–6pmTuesday8am–6pmWednesday8am–6pmThursday8am–6pmFriday8am–6pm
Phone: 01670 762300
Opened: 1972","HMP Northumberland, Morpeth, Northumberland, NE65 9XG",1972,,male,c ,NE65 9XG,55.2964636363,-1.6324150818,Northumberland,Northumberland,Northumberland,HMP Northumberland,NE,http://www.doingtime.co.uk/hmp-northumberland/,Morpeth  Northumberland  NE65 9XG,01670 762300,Male Cat C,NE65 9XG,55.2964636363,-1.6324150818,55.2964636363,-1.6324150818,NE65 9XG,Northumberland,NLI,,adult,,,
Norwich,"HM Prison Norwich is a Category B/C multi-functional prison for adult and juvenile males, located on Mousehold Heath in Norwich, Norfolk, England. The prison is operated by Her Majesty's Prison Service. Wikipedia

Address: Knox Cl, Norwich, Norfolk NR1 4LU
Opened: 1887
Phone: 01603 708600","Knox Cl, Norwich, Norfolk NR1 4LU",1887,,male,b/c ,NR1 4LU,52.637571073,1.3175852918,Norwich,Norwich,Norwich,HMP Norwich,EoE,http://www.doingtime.co.uk/hmp-norwich/,Knox Road  Norwich  Norfolk NR1 4LU,01603 708 600,"Male Cat B, C & D",NR1 4LU,52.637571073,1.3175852918,52.637571073,1.3175852918,NR1 4LU,Norwich,NWI,,adult,,,
Norwich,"HM Prison Norwich is a Category B/C multi-functional prison for adult and juvenile males, located on Mousehold Heath in Norwich, Norfolk, England. The prison is operated by Her Majesty's Prison Service. Wikipedia

Address: Knox Cl, Norwich, Norfolk NR1 4LU
Opened: 1887
Phone: 01603 708600","Knox Cl, Norwich, Norfolk NR1 4LU",1887,,male,b/c ,NR1 4LU,52.637571073,1.3175852918,Norwich,Norwich,Norwich,HMP Norwich,EoE,http://www.doingtime.co.uk/hmp-norwich/,Knox Road  Norwich  Norfolk NR1 4LU,01603 708 600,"Male Cat B, C & D",NR1 4LU,52.637571073,1.3175852918,52.637571073,1.3175852918,NR1 4LU,Norwich,NWI,,adult,,,
Norwich,"HM Prison Norwich is a Category B/C multi-functional prison for adult and juvenile males, located on Mousehold Heath in Norwich, Norfolk, England. The prison is operated by Her Majesty's Prison Service. Wikipedia

Address: Knox Cl, Norwich, Norfolk NR1 4LU
Opened: 1887
Phone: 01603 708600","Knox Cl, Norwich, Norfolk NR1 4LU",1887,,male,b/c ,NR1 4LU,52.637571073,1.3175852918,Norwich,Norwich,Norwich,HMP Norwich,EoE,http://www.doingtime.co.uk/hmp-norwich/,Knox Road  Norwich  Norfolk NR1 4LU,01603 708 600,"Male Cat B, C & D",NR1 4LU,52.637571073,1.3175852918,52.637571073,1.3175852918,NR1 4LU,Norwich,NWI,,adult,,,
Nottingham,"HM Prison Nottingham is a Category B men's prison, located in the Sherwood area of Nottingham, Nottinghamshire, England. The prison is operated by Her Majesty's Prison Service. Wikipedia

Address: Perry Rd, Sherwood, Nottingham NG5 3AG
Opened: 1890
Phone: 0115 872 4000
Capacity: 1,060","Perry Rd, Sherwood, Nottingham NG5 3AG",1890,1060,male,b ,NG5 3AG,52.9845309905,-1.1550577292,Nottingham,Nottingham,Nottingham,HMP Nottingham,EM,http://www.doingtime.co.uk/hmp-nottingham/,Perry Road  Sherwood  Nottingham  NG5 3AG,0115 872 4000,Male Cat B Local,NG5 3AG,52.9845309905,-1.1550577292,52.9845309905,-1.1550577292,NG5 3AG,Nottingham,NMI,,adult,,,
Oakwood,"HM Prison Oakwood, is a Category C prison in the village of Featherstone, Wolverhampton, in Staffordshire, England. First opened in April 2012, the prison is operated by G4S and was aimed to be in full operation by autumn 2012. Wikipedia

Address: Oak Road, Featherstone, West Midlands WV10 7QD
Phone: 01902 799700
Capacity: 1,605
Opened: April 2012","Oak Road, Featherstone, West Midlands WV10 7QD",April 2012,1605,,c ,WV10 7QD,52.6457252416,-2.1129544754,Oakwood,Oakwood,Oakwood,HMP Oakwood,WM,http://www.doingtime.co.uk/hmp-oakwood/,"Oak Road, Featherstone, West Midlands,  WV10 7QD",01902 799700,Male Cat C,WV10 7QD,52.6457252416,-2.1129544754,52.6457252416,-2.1129544754,WV10 7QD,Oakwood,OWI,,adult,,,
Onley,"HM Prison Onley is a Category C men's prison, operated by Her Majesty's Prison Service. The prison is named after the lost village of Onley, which is located next to the prison. Wikipedia

Address: Rugby CV23 8AP
Phone: 01788 523400
Opened: 1968",Rugby CV23 8AP,1968,,male,c ,CV23 8AP,52.3264635478,-1.2476908279,Onley,Onley,Onley,HMP Onley,EM,http://www.doingtime.co.uk/hmp-onley/,Willoughby  Rugby  Warwickshire  CV23 8AP,01788 523400,Cat. C Adult Male,CV23 8AP,52.3264635478,-1.2476908279,52.3264635478,-1.2476908279,CV23 8AP,Onley,ONI,male,adult,,,
Parc,"HM Prison Parc is a Category B men's private prison and Young Offenders Institution in Bridgend, Mid Glamorgan, Wales. Parc Prison is operated by G4S, and is the only privately operated prison in Wales. Wikipedia

Address: Heol Hopcyn John, Coity, Bridgend CF35 6AP
Phone: 01656 300200
Capacity: 1,200
Opened: 1997","Heol Hopcyn John, Coity, Bridgend CF35 6AP",1997,1200,"male, yoi",b ,CF35 6AP,51.5309443708,-3.5631395933,Parc,Parc,Parc,HMP & YOI Parc,Wal,http://www.doingtime.co.uk/hmp-yoi-parc/,Heol Hopcyn John  Bridgend  South Wales  CF35 6AP,01656 300200,"Male and Young Adult Cat B, Young Offenders",CF35 6AP,51.5309443708,-3.5631395933,51.5309443708,-3.5631395933,CF35 6AP,Parc,PRI,,youth,,,
Pentonville,"HM Prison Pentonville is a Category B/C men's prison, operated by Her Majesty's Prison Service. Pentonville Prison is not actually within Pentonville itself, but is located further north, on the Caledonian ... Wikipedia

Address: Caledonian Rd, London N7 8TT
Opened: 1842
Phone: 020 7023 7000
Engineer: Joshua Webb
London borough: London Borough of Islington
Architects: Joshua Jebb, Joshua Webb","Caledonian Rd, London N7 8TT",1842,,male,b/c ,N7 8TT,51.5450038763,-0.1158837516,Pentonville,Pentonville,Pentonville,HMP Pentonville,Lon,http://www.doingtime.co.uk/hmp-pentonville/,Caledonian Road  London  N7 8TT,020 7023 7000,Male Cat B Local,N7 8TT,51.5450038763,-0.1158837516,51.5450038763,-0.1158837516,N7 8TT,Pentonville,PVI,,adult,,,
Peterborough (Female),"HM Prison Peterborough is a Category B private prison for men, and a closed prison for women and female young offenders, located in Peterborough, Cambridgeshire, England. Wikipedia

Address: Saville Rd, Peterborough PE3 7PD
Phone: 01733 217500
Capacity: 840
Opened: 2005","Saville Rd, Peterborough PE3 7PD",2005,840,"male, female, yoi",b ,PE3 7PD,52.5865143362,-0.2599612604,Peterborough Female,,Peterborough Female,HMP & YOI Peterborough,EoE,http://www.doingtime.co.uk/hmp-yoi-peterborough-female/,Saville Road  Westfield  Peterborough PE3 7PD,01733 217500,Female Adult and Young Offenders,PE3 7PD,52.5865143362,-0.2599612604,52.5865143362,-0.2599612604,PE3 7PD,,,,youth,,,
Peterborough (Male & Female),,,,,,,,,,Peterborough Male,Peterborough,Peterborough Male,HMP Peterborough,EoE,http://www.doingtime.co.uk/hmp-peterborough/,Saville Road  Westfield  Peterborough PE3 7PD,01733 217500,Male Cat B,PE3 7PD,52.5865143362,-0.2599612604,52.5865143362,-0.2599612604,PE3 7PD,,,,adult,,,
Peterborough (Male),"HM Prison Peterborough is a Category B private prison for men, and a closed prison for women and female young offenders, located in Peterborough, Cambridgeshire, England. Wikipedia

Address: Saville Rd, Peterborough PE3 7PD
Phone: 01733 217500
Capacity: 840
Opened: 2005","Saville Rd, Peterborough PE3 7PD",2005,840,"male, female, yoi",b ,PE3 7PD,52.5865143362,-0.2599612604,,,,,,,,,,,,,52.5865143362,-0.2599612604,PE3 7PD,,,,,,,
Portland,"HM Prison Portland is a male Adult/Young Offenders Institution, located in the village of The Grove on the Isle of Portland, in Dorset, England. Portland YOI prison is operated by Her Majesty's Prison Service. Wikipedia

Address: 104 Grove Rd, Portland, Dorset DT5 1DL
Phone: 01305 715600
Opened: 1848","104 Grove Rd, Portland, Dorset DT5 1DL",1848,,"male, yoi",,DT5 1DL,50.5503611938,-2.4221210665,Portland,Portland,Portland,HMP & YOI Portland,SW,http://www.doingtime.co.uk/hmp-yoi-portland/,104 The Grove  Easton  Portland  Dorset DT5 1DL,01305 715600,Male Cat C adult and Young Offenders,DT5 1DL,50.5503611938,-2.4221210665,50.5503611938,-2.4221210665,DT5 1DL,Portland,PDI,,youth,,,
Prescoed,"HM Prison Prescoed is a Category D men's open prison, located in Coed-y-paen, three miles from Usk in Monmouthshire, South Wales. Prescoed is operated by Her Majesty's Prison Service, and acts as a satellite prison of the nearby HMP Usk. Wikipedia

Address: Pontypool
Opened: 1939
Phone: 01291 671600
Capacity: 230",Pontypool,1939,230,male,"open, d ",,,,Prescoed,,Prescoed,HMP Prescoed,Wal,http://www.doingtime.co.uk/hmp-prescoed/,Coed-y-Paen  Pontypool  Monmouthshire  NP4 0TB,01291 675000,Male Cat D,NP4 0TB,51.67587153,-2.9506577044,51.67587153,-2.9506577044,NP4 0TB,Prescoed,UPI,,adult,,,
Preston,"HM Prison Preston is a Category B men's prison, located in the St Matthew's area of Preston in Lancashire, England. The prison is operated by Her Majesty's Prison Service. Wikipedia

Address: 2 Ribbleton Ln, Preston PR1 5AB
Opened: 1790
Capacity: 750
Phone: 01772 444550","2 Ribbleton Ln, Preston PR1 5AB",1790,750,male,b ,PR1 5AB,53.7614612887,-2.6893655066,Preston,Preston,Preston,HMP Preston,NW,http://www.doingtime.co.uk/hmp-preston/,2 Ribbleton Lane  Preston  Lancashire PR1 5AB,01772 444550,Male Cat B,PR1 5AB,53.7614612887,-2.6893655066,53.7614612887,-2.6893655066,PR1 5AB,Preston,PNI,,adult,,,
Ranby,"HM Prison Ranby is a Category C men's prison, located in the village of Ranby in Nottinghamshire, England. The prison is operated by Her Majesty's Prison Service. It holds about 1000 male prisoners. Wikipedia

Address: Retford DN22 8EU
Phone: 01777 862000",Retford DN22 8EU,,,male,c ,DN22 8EU,53.3214262333,-0.9990284804,Ranby,Ranby,Ranby,HMP Ranby,EM,http://www.doingtime.co.uk/hmp-ranby/,Straight Mile  Retford  Notts  DN22 8EU,01777 862 000,Male Cat C,DN22 8EU,53.3214262333,-0.9990284804,53.3214262333,-0.9990284804,DN22 8EU,Ranby,RNI,,adult,,,
Reading,"HM Prison Reading, formerly known as Reading Gaol, is a former prison located in Reading, Berkshire, England. The prison was operated by Her Majesty's Prison Service until its closure at the end of 2013. It is a Grade II-listed building. Wikipedia

Address: 〒RG1 3HY Reading, フォーベリー・ロード
Opened: 1844
Closed: November 2013
Phone: 0118 908 5000
Owner: Ministry of Justice
Architectural style: Victorian architecture
Architect: George Gilbert Scott","〒RG1 3HY Reading, フォーベリー・ロード",1844,,,,RG1 3HY,51.4564495538,-0.9640283342,,,,,,,,,,,,,51.4564495538,-0.9640283342,RG1 3HY,,,,,,,
Risley,"HM Prison Risley is a Category C men's prison, located in the Risley area of Warrington, Cheshire, England. The prison is operated by Her Majesty's Prison Service. Wikipedia

Address: Warrington Rd, Risley, Warrington WA3 6BP
Opened: 1964
Phone: 01925 733000","Warrington Rd, Risley, Warrington WA3 6BP",1964,,male,c ,WA3 6BP,53.4386941143,-2.5252068719,Risley,Risley,Risley,HMP Risley,NW,http://www.doingtime.co.uk/hmp-risley/,Warrington Road  Risley  WARRINGTON  Cheshire WA3 6BP,01925 733000,Male Cat C,WA3 6BP,53.4386941143,-2.5252068719,53.4386941143,-2.5252068719,WA3 6BP,Risley,RSI,,adult,,,
Rochester,"HM Prison Rochester is a male Young Offenders Institution, located in the Borstal area of Rochester in Kent, England. The prison is operated by Her Majesty's Prison Service, and is located next to HMP Cookham Wood. Wikipedia

Address: 1 Fort Rd, Rochester, Medway ME1 3QS
Phone: 01634 803100
Opened: 1874","1 Fort Rd, Rochester, Medway ME1 3QS",1874,,"male, yoi",,ME1 3QS,51.3666482749,0.4939835598,Rochester,Rochester,Rochester,HMP Rochester,K&S,http://www.doingtime.co.uk/hmp-rochester/,1 Fort Road  Rochester  Kent ME1 3QS,01634 803100,Male Cat C and Young Offenders,ME1 3QS,51.3666482749,0.4939835598,51.3666482749,0.4939835598,ME1 3QS,Rochester,RCI,,youth,,,
Rye Hill,"HM Prison Rye Hill is a Category B men's private prison, operated by G4S. The prison is situated next to HMP Onley, in the parish of Barby, Northamptonshire, England. Wikipedia

Address: Willoughby, Rugby CV23 8SZ
Phone: 01788 523300
Capacity: 664
Opened: 2001","Willoughby, Rugby CV23 8SZ",2001,664,male,b ,CV23 8SZ,52.327520158,-1.2428012271,Rye Hill,Rye Hill,Rye Hill,HMP Rye Hill,EM,http://www.doingtime.co.uk/hmp-rye-hill/,Willoughby  Nr Rugby  Warwickshire  CV23 8SZ,+44 (0)1788 523300,Cat B Male,CV23 8SZ,52.327520158,-1.2428012271,52.327520158,-1.2428012271,CV23 8SZ,Rye Hill,RHI,male,adult,,,
Send,"HM Prison Send is a closed category women's prison in the extreme south of Ripley nearer Send in Surrey, England. Its post town is Woking. The prison is operated by Her Majesty's Prison Service. Wikipedia

Address: Ripley Rd, Woking GU23 7LJ
Hours: Open today · 2:15–4:15pmSaturday2:15–4:15pmSunday2:15–4:15pmMondayClosedTuesdayClosedWednesdayClosedThursday2:15–4:15pmFridayClosed
Phone: 01483 471000
Opened: 1962","Ripley Rd, Woking GU23 7LJ",1962,,female,,GU23 7LJ,51.2727006072,-0.4899292405,Send,Send,Send,HMP Send,Lon,http://www.doingtime.co.uk/hmp-send/,Ripley Road  Woking  Surrey  GU23 7LJ,01483 471000,Female Closed,GU23 7LJ,51.2727006072,-0.4899292405,51.2727006072,-0.4899292405,GU23 7LJ,Send,SDI,,adult,,,
Sheppey,,,,,,,,,,,,,,,,,,,,,,,,,,,,,,51.3921411522,0.8491284645
Shepton Mallet,"HMP Shepton Mallet, sometimes known as Cornhill, is a former prison located in Shepton Mallet, Somerset, England. Wikipedia

Opened: 1625",,1625,,,,,,,,,,,,,,,,,,,,,,,,,,,51.190611,-2.543228
Shepton Mallet / Erlestoke,"Address: Erlestoke House, Erlestoke, Devizes SN10 5TU
Phone:01380 814250
","Erlestoke House, Erlestoke, Devizes SN10 5TU",,,,,SN10 5TU,51.2846618834,-2.0441565961,,,,,,,,,,,,,51.2846618834,-2.0441565961,SN10 5TU,,,,,,,
Shrewsbury,"HM Prison Shrewsbury was a Category B/C men's prison in Shrewsbury, Shropshire, England. It closed in March 2013.
The former prison site, on Howard Street, adjacent to Shrewsbury railway station, is near the site of the Dana Gaol, a medieval prison. Wikipedia

Address: The Dana, Shrewsbury SY1 2HR
Hours: Open today · 12–8pmSaturday12–8pmSunday10am–6pmMondayClosedTuesday2–8pmWednesday7:30–11pmThursday2–8pmFriday2–8pm
Phone: 01743 343100
Opened: 1793","The Dana, Shrewsbury SY1 2HR",1793,,male,b/c ,SY1 2HR,,,,,,,,,,,,,,,,,SY1 2HR,,,,,,52.712139,-2.747581
Spring Hill,"HM Prison Spring Hill is a Category D men's prison, located in the village of Grendon Underwood, in Buckinghamshire, England. Wikipedia

Address: Grendon, Grendon Underwood, Aylesbury HP18 0TL
Phone: 01296 445000
Opened: 1953","Grendon, Grendon Underwood, Aylesbury HP18 0TL",1953,,male,d ,HP18 0TL,51.8916539681,-1.0095492773,Spring Hill,,Spring Hill,HMP Spring Hill,SC,http://www.doingtime.co.uk/hmp-spring-hill/,Grendon Underwood  Nr. Aylesbury  Buckinghamshire  HP18 0TL,01296 445000,Male Cat D,HP18 0TL,51.8916539681,-1.0095492773,51.8916539681,-1.0095492773,HP18 0TL,Spring Hill,SPI,,adult,,,
Stafford,"HM Prison Stafford is a Category C men's prison, located in Stafford, Staffordshire, England. The prison is operated by Her Majesty's Prison Service. Wikipedia

Address: 54 Gaol Rd, Stafford ST16 3AW
Opened: 1793
Phone: 01785 773000","54 Gaol Rd, Stafford ST16 3AW",1793,,male,c ,ST16 3AW,52.8115151026,-2.1184519091,Stafford,Stafford,Stafford,HMP Stafford,WM,http://www.doingtime.co.uk/hmp-stafford/,"54 Gaol Road, Stafford, ST16 3AW",01785 773000,Male Cat C,ST16 3AW,52.8115151026,-2.1184519091,52.8115151026,-2.1184519091,ST16 3AW,Stafford,SFI,,adult,,,
Standford Hill (Sheppey),"HM Prison Standford Hill is a Category D men's prison, located close to the village of Eastchurch on the Isle of Sheppey, Kent. Standford Hill forms part of the Sheppey prisons cluster, which also includes HMP Elmley and HMP Swaleside. Wikipedia

Address: Church Rd, Eastchurch, Sheerness ME12 4AA
Phone: 01795 884500
Opened: 1950","Church Rd, Eastchurch, Sheerness ME12 4AA",1950,,male,d ,ME12 4AA,51.3909130267,0.8492708819,Standford Hill,Sheppey Cluster (Standford Hill),Standford Hill,HMP Standford Hill,K&S,http://www.doingtime.co.uk/hmp-standford-hill/,Church Road  Eastchurch  Sheerness  Kent  ME12 4AA,01795 884500,Male Cat D,ME12 4AA,51.3909130267,0.8492708819,51.3909130267,0.8492708819,ME12 4AA,,,,adult,,,
Stocken,"HM Prison Stocken is a Category C men's prison located in the parish of Stretton, in the county of Rutland, England. Stocken is operated by Her Majesty's Prison Service. Wikipedia

Address: Stocken Hall Rd, Stretton, Oakham LE15 7RD
Phone: 01780 795100
Opened: 1985","Stocken Hall Rd, Stretton, Oakham LE15 7RD",1985,,male,c ,LE15 7RD,52.7459310911,-0.5817814532,Stocken,Stocken,Stocken,HMP Stocken,EM,http://www.doingtime.co.uk/hmp-stocken/,Stocken Hall Road  Stretton  Nr Oakham  Rutland  LE15 7RD,01780 795100,Male Cat C,LE15 7RD,52.7459310911,-0.5817814532,52.7459310911,-0.5817814532,LE15 7RD,Stocken,SKI,,adult,,,
Stoke Heath,"HM Prison Stoke Heath is a male adult male Category C prison and Young Offenders Institution, located in the village of Stoke Heath in Shropshire, England. The prison is operated by Her Majesty's Prison Service. Wikipedia

Address: Stoke Heath, Market Drayton, Shropshire TF9 2JL
Phone: 01630 636000
Opened: 1964","Stoke Heath, Market Drayton, Shropshire TF9 2JL",1964,,"male, yoi",c ,TF9 2JL,52.865328157,-2.5272548367,Stoke Heath,Stoke Heath,Stoke Heath,HMP Stoke Heath,WM,http://www.doingtime.co.uk/hmp-stoke-heath/,"Market Drayton, Shropshire, TF9 2JL",01630 636 000,Cat C  male and Young Adult,TF9 2JL,52.865328157,-2.5272548367,52.865328157,-2.5272548367,TF9 2JL,Stoke Heath,SHI,male,youth,,,
Styal,"HM Prison Styal is a Closed Category prison for female adults and young offenders in Styal, Cheshire, England. The prison is operated by Her Majesty's Prison Service. Wikipedia

Address: Wilmslow SK9 4HR
Phone: 01625 553000
Opened: 1962",Wilmslow SK9 4HR,1962,,"female, yoi",,SK9 4HR,53.3411284199,-2.2381160676,Styal,Styal,Styal,HMP Styal,NW,http://www.doingtime.co.uk/hmp-styal/,Wilmslow  Cheshire SK9 4HR,01625 553000,Female closed,SK9 4HR,53.3411284199,-2.2381160676,53.3411284199,-2.2381160676,SK9 4HR,Styal,STI,,adult,,,
Sub Total,,,,,,,,,,,,,,,,,,,,,,,,,,,,,,,
Sudbury,"HM Prison Sudbury is a Category D men's prison, located in the village of Sudbury in Derbyshire, England. The prison is operated by Her Majesty's Prison Service. Wikipedia

Address: Ashbourne Road, Sudbury, Ashbourne DE6 5HW
Phone: 01283 584000
Opened: 1948","Ashbourne Road, Sudbury, Ashbourne DE6 5HW",1948,,male,d ,DE6 5HW,52.8927658229,-1.7682496872,Sudbury,Sudbury,Sudbury,HMP Sudbury,EM,http://www.doingtime.co.uk/hmp-sudbury/,Ashbourne  Derbyshire  DE6 5HW,01283 584000,Male Cat D,DE6 5HW,52.8927658229,-1.7682496872,52.8927658229,-1.7682496872,DE6 5HW,Sudbury,SUI,,adult,,,
Swaleside (Sheppey),"HM Prison Swaleside is a Category B men's prison, located close to the village of Eastchurch on the Isle of Sheppey, Kent. Swaleside forms part of the Sheppey prisons cluster, which also includes HMP Elmley and HMP Standford Hill. Wikipedia

Address: Brabazon Rd, Eastchurch, Isle of Sheppey ME12 4AX
Phone: 01795 804100
Capacity: 1,112
Opened: 1988","Brabazon Rd, Eastchurch, Isle of Sheppey ME12 4AX",1988,1112,male,b ,ME12 4AX,51.3938249167,0.8550040344,Swaleside,Sheppey Cluster (Swaleside),Swaleside,HMP Swaleside,K&S,http://www.doingtime.co.uk/hmp-swaleside/,Brabazon Road  Eastchurch  Isle of Sheppey  Kent ME12 4AX,01795 804100,Male Cat B,ME12 4AX,51.3938249167,0.8550040344,51.3938249167,0.8550040344,ME12 4AX,,,,adult,,,
Swansea,"HM Prison Swansea is a Category B/C men's prison, located in the Sandfields area of Swansea, Wales. The prison is operated by Her Majesty's Prison Service, and is colloquially known as 'Cox's farm', after a former governor. Wikipedia

Address: 200 Oystermouth Rd, Swansea SA1 3SR
Opened: 1861
Phone: 01792 485451","200 Oystermouth Rd, Swansea SA1 3SR",1861,,male,b/c ,SA1 3SR,51.6153825534,-3.9488859749,Swansea,Swansea,Swansea,HMP Swansea,Wal,http://www.doingtime.co.uk/hmp-swansea/,200 Oystermouth Road  Swansea  SA1 3SR,01792 485300,Male Cat B,SA1 3SR,51.6153825534,-3.9488859749,51.6153825534,-3.9488859749,SA1 3SR,Swansea,SWI,,adult,,,
Swinfen Hall,"HM Prison Swinfen Hall is a Category C men's prison and Young Offenders Institution, located in the village of Swinfen in Staffordshire, England. The prison is operated by Her Majesty's Prison Service. Wikipedia

Address: Swinfen Hall, Lichfield WS14 9QS
Phone: 01543 484000
Opened: 1963","Swinfen Hall, Lichfield WS14 9QS",1963,,"male, yoi",c ,WS14 9QS,52.6533508967,-1.805038037,Swinfen Hall,Swinfen Hall,Swinfen Hall,HMP YOI Swinfen Hall,WM,http://www.doingtime.co.uk/hmp-swinfen-hall/,"Swinfen Hall, Lichfield, Staffordshire  WS14 9QS",01543 484 000,Male Young Adults & Cat C Male,WS14 9QS,52.6533508967,-1.805038037,52.6533508967,-1.805038037,WS14 9QS,Swinfen Hall,SNI,male,youth,,,
Thameside,"HM Prison Thameside is a Category B & C men's private prison in the Thamesmead area of the Royal Borough of Greenwich, south-east London, England. Thameside Prison is operated by Serco and is situated next to Belmarsh and Isis prisons. Wikipedia

Address: London
Opened: March 30, 2012
London borough: Royal Borough of Greenwich",London,"March 30, 2012",,male,b & c ,,,,Thameside,Thameside,Thameside,HMP Thameside,Lon,http://www.doingtime.co.uk/hmp-thameside/,Griffin Manor Way  Thamesmead  London SE28 0FJ,0208 317 9777,Male Cat B,SE28 0FJ,51.4934464067,0.0875015395,51.4934464067,0.0875015395,SE28 0FJ,,,,adult,,,
Thorn Cross,"HM Prison Thorn Cross is a Category D Adult Male Institution for males aged 21+. The prison is located in the village of Appleton Thorn in Cheshire, England. Thorn Cross is operated by Her Majesty's Prison Service. Wikipedia

Address: Arley Rd, Appleton WA4 4RL
Phone: 01925 805100
Opened: 1985","Arley Rd, Appleton WA4 4RL",1985,,male,d ,WA4 4RL,53.3487740825,-2.5426825907,Thorn Cross,Thorn Cross,Thorn Cross,HMP & YOI Thorn Cross,NW,http://www.doingtime.co.uk/hmp-yoi-thorn-cross/,Arley Road  Appleton Thorn  Warrington  Cheshire WA4 4RL,01925 805100,Male 18-25 yo Open Prison,WA4 4RL,53.3487740825,-2.5426825907,53.3487740825,-2.5426825907,WA4 4RL,Thorn Cross,TCI,,youth,,,
Total,,,,,,,,,,,,,,,,,,,,,,,,,,,,,,,
Usk,"HM Prison Usk is a Category C men's prison, located in Maryport Street in Usk, Monmouthshire, Wales. The prison is operated by Her Majesty's Prison Service, and jointly managed with the nearby HMP Prescoed. Wikipedia

Address: 47 Maryport St, Usk NP15 1XP
Phone: 01291 671600
Opened: 1844","47 Maryport St, Usk NP15 1XP",1844,,male,c ,NP15 1XP,51.6994275626,-2.9004858824,,,,,,,,,,,,,51.6994275626,-2.9004858824,NP15 1XP,Usk,UKI,,,,,
Usk / Prescoed,"HM Prison Usk is a Category C men's prison, located in Maryport Street in Usk, Monmouthshire, Wales. The prison is operated by Her Majesty's Prison Service, and jointly managed with the nearby HMP Prescoed. Wikipedia

Address: 47 Maryport St, Usk NP15 1XP
Phone: 01291 671600
Opened: 1844","47 Maryport St, Usk NP15 1XP",1844,,male,c ,NP15 1XP,51.6994275626,-2.9004858824,Usk,Usk,Usk,HMP Usk,Wal,http://www.doingtime.co.uk/hmp-usk/,47 Maryport Street  Usk  Monmouthshire  NP15 1XP,01291 671600,Male Cat C,NP15 1XP,51.6994275626,-2.9004858824,51.6994275626,-2.9004858824,NP15 1XP,,,,adult,,,
Verne (IRC),"Address: Portland DT5 1EQ
Phone:01305 825000
",Portland DT5 1EQ,,,,,DT5 1EQ,50.5613638287,-2.4356175272,,The Verne,,,,,,,,,,,50.5613638287,-2.4356175272,DT5 1EQ,,,,,,,
Wakefield,"Her Majesty's Prison Wakefield is a Category A men's prison, located in Wakefield, West Yorkshire, England. The prison is operated by Her Majesty's Prison Service, and is the largest high security prison in the United Kingdom. Wikipedia

Address: 5 Love Ln, Wakefield WF2 9AG
Opened: 1594
Phone: 01924 612000","5 Love Ln, Wakefield WF2 9AG",1594,,male,a ,WF2 9AG,53.6832942268,-1.5092842393,Wakefield,Wakefield,Wakefield,HMP Wakefield,Y&H,http://www.doingtime.co.uk/hmp-wakefield/,5 Love Lane  Wakefield  West Yorkshire  WF2 9AG,01924 612 000,Male Cat A & B,WF2 9AG,53.6832942268,-1.5092842393,53.6832942268,-1.5092842393,WF2 9AG,Wakefield,WDI,,adult,,,
Wandsworth,"HM Prison Wandsworth is a Category B men's prison at Wandsworth in the London Borough of Wandsworth, south west London, England. It is operated by Her Majesty's Prison Service and is the largest prison in the United Kingdom. Wikipedia

Address: Heathfield Rd, London SW18 3HS
Opened: 1851
Phone: 020 8588 4000
London borough: London Borough of Wandsworth","Heathfield Rd, London SW18 3HS",1851,,male,b ,SW18 3HS,51.4482215206,-0.1915402678,Wandsworth,Wandsworth,Wandsworth,HMP Wandsworth,Lon,http://www.doingtime.co.uk/hmp-wandsworth/,Heathfield Road  Wandsworth  London SW18 3HS,020 8588 4000,Cat B/C Male local prison,SW18 3HS,51.4482215206,-0.1915402678,51.4482215206,-0.1915402678,SW18 3HS,Wandsworth,WWI,male,adult,,,
Warren Hill,"HM Young Offenders Institution Warren Hill is a male juvenile's prison located near the village of Hollesley in Suffolk, England. The prison is operated by Her Majesty's Prison Service, and is situated next to Hollesley Bay Prison. Wikipedia

Address: Hollesley, Woodbridge IP12 3JW
Phone: 01394 633400
Opened: 2002 (1982)","Hollesley, Woodbridge IP12 3JW",2002 (1982),,"male, yoi",,IP12 3JW,52.0512694616,1.4513407306,Warren Hill,Warren Hill,Warren Hill,HMP & YOI Warren Hill,EoE,http://www.doingtime.co.uk/hmp-yoi-warren-hill/,"Grove Road,  Hollesley  Nr Woodbridge  Suffolk IP12 3BF",01394 633 400,Male Cat C,IP12 3BF,52.058674417,1.4605149663,52.058674417,1.4605149663,IP12 3BF,Warren Hill,WII,,adult,,,
Wayland,"HM Prison Wayland is a Category C men's prison, located near the village of Griston in Norfolk, England. The prison is operated by Her Majesty's Prison Service. Wikipedia

Address: Thetford IP25 6RL
Phone: 01953 804100
Opened: 1985",Thetford IP25 6RL,1985,,male,c ,IP25 6RL,52.5537585778,0.859461004,Wayland,Wayland,Wayland,HMP Wayland,EoE,http://www.doingtime.co.uk/hmp-wayland/,Griston  Thetford  Norfolk IP25 6RL,01953 804100,Male Cat C,IP25 6RL,52.5537585778,0.859461004,52.5537585778,0.859461004,IP25 6RL,Wayland,WLI,,adult,,,
Wealstun,"HM Prison Wealstun is a Category C men's prison, located near the village of Thorp Arch in West Yorkshire, England. The prison is operated by Her Majesty's Prison Service. Wikipedia

Address: Thorp Arch, Wetherby LS23 7AZ
Phone: 01937 444400
Opened: 1995 (1965)","Thorp Arch, Wetherby LS23 7AZ",1995 (1965),,male,c ,LS23 7AZ,53.9161778208,-1.3283555307,Wealstun,Wealstun,Wealstun,HMP Wealstun,Y&H,http://www.doingtime.co.uk/hmp-wealstun/,Church Causeway  Thorp Arch  Wetherby  Yorkshire  LS23 7AZ,01937 444 400,Male Cat C,LS23 7AZ,53.9161778208,-1.3283555307,53.9161778208,-1.3283555307,LS23 7AZ,Wealstun,WEI,,adult,,,
Wellingborough,"Address: Millers Park, Wellingborough NN8 2NH
Phone:01933 232700
","Millers Park, Wellingborough NN8 2NH",,,,,NN8 2NH,52.2827719027,-0.6930212741,,,,,,,,,,,,,52.2827719027,-0.6930212741,NN8 2NH,,,,,,,
Werrington,"Address: Ash Bank Rd, Werrington, Stoke-on-Trent ST9 0JS
","Ash Bank Rd, Werrington, Stoke-on-Trent ST9 0JS",,,,,ST9 0JS,53.0216108717,-2.1012725916,Werrington,Werrington,Werrington,HMYOI Werrington,WM,http://www.doingtime.co.uk/hmyoi-werrington/,"Werrington, Stoke-On-Trent, ST9 0DX",01782 463 300,Male Juvenile Centre (aged 15-18),ST9 0DX,53.0223679627,-2.0874545629,53.0223679627,-2.0874545629,ST9 0DX,Werrington,WNI,,youth,,,
Wetherby,"HMP/YOI Wetherby is a male juveniles prison, located in Wetherby, West Yorkshire, England. The prison is operated by Her Majesty's Prison Service. Wikipedia

Address: York Rd, Wetherby, West Yorkshire LS22 5ED
Phone: 01937 544200
Opened: 1958","York Rd, Wetherby, West Yorkshire LS22 5ED",1958,,"male, yoi",,LS22 5ED,53.9352486445,-1.3678198036,Wetherby,Wetherby,Wetherby,HMYOI Wetherby,Y&H,http://www.doingtime.co.uk/hmyoi-wetherby/,York Road  Wetherby  West Yorkshire  LS22 5ED,01937 544 200,Male young offenders,LS22 5ED,53.9352486445,-1.3678198036,53.9352486445,-1.3678198036,LS22 5ED,Wetherby,WYI,,youth,,,
Whatton,"HM Prison Whatton is a Category C men's prison, located in the village of Whatton, near Bingham in Nottinghamshire, England. The prison is operated by Her Majesty's Prison Service. Wikipedia

Address: UK, New Ln, Whatton, Nottingham NG13 9FQ
Phone: 01949 803200
Opened: 1966","UK, New Ln, Whatton, Nottingham NG13 9FQ",1966,,male,c ,NG13 9FQ,52.9466455354,-0.9114082889,Whatton,Whatton,Whatton,HMP Whatton,EM,http://www.doingtime.co.uk/hmp-whatton/,New Lane  Whatton  Nottingham  NG13 9FQ,01949 803200,Male Cat C,NG13 9FQ,52.9466455354,-0.9114082889,52.9466455354,-0.9114082889,NG13 9FQ,Whatton,WTI,,adult,,,
Whitemoor,"HM Prison Whitemoor is a Category A men's prison, located near the town of March in Cambridgeshire, England. The prison is operated by Her Majesty's Prison Service. Wikipedia

Address: Longhill Rd, Whitemoor, PE15 0PR
Phone: 01354 602350
Opened: 1992","Longhill Rd, Whitemoor, PE15 0PR",1992,,male,a ,PE15 0PR,52.5757818455,0.0808848562,Whitemoor,Whitemoor,Whitemoor,HMP Whitemoor,EoE,http://www.doingtime.co.uk/hmp-whitemoor/,Longhill Road  March  Cambridgeshire PE15 0PR,01354 602 350,Cat A & B Male,PE15 0PR,52.5757818455,0.0808848562,52.5757818455,0.0808848562,PE15 0PR,Whitemoor,WRI,male,adult,,,
Winchester,"HM Prison Winchester is a Category B men's prison, located in Winchester, Hampshire, England. The prison is operated by Her Majesty's Prison Service. Wikipedia

Address: Romsey Rd, Winchester SO22 5DF
Phone: 01962 723000","Romsey Rd, Winchester SO22 5DF",,,male,b ,SO22 5DF,51.0628650623,-1.3273696594,Winchester,Winchester,Winchester,HMP Winchester,SC,http://www.doingtime.co.uk/hmp-winchester/,Romsey Road  Winchester  SO22 5DF,01962 723000,Male Cat B/C,SO22 5DF,51.0628650623,-1.3273696594,51.0628650623,-1.3273696594,SO22 5DF,Winchester,WCI,,adult,,,
Winchester,"HM Prison Winchester is a Category B men's prison, located in Winchester, Hampshire, England. The prison is operated by Her Majesty's Prison Service. Wikipedia

Address: Romsey Rd, Winchester SO22 5DF
Phone: 01962 723000","Romsey Rd, Winchester SO22 5DF",,,male,b ,SO22 5DF,51.0628650623,-1.3273696594,Winchester,Winchester,Winchester,HMP Winchester,SC,http://www.doingtime.co.uk/hmp-winchester/,Romsey Road  Winchester  SO22 5DF,01962 723000,Male Cat B/C,SO22 5DF,51.0628650623,-1.3273696594,51.0628650623,-1.3273696594,SO22 5DF,Winchester,WCI,,adult,,,
Wolds,"HM Prison Wolds is a Category C men's prison, located south-west of Everthorpe, in the East Riding of Yorkshire, England. The prison is operated by Her Majesty's Prison Service, and is situated next to HMP Everthorpe. Wikipedia

Address: HMP Wolds, Everthorpe HU15 2JZ
Opened: 1992
Phone: 01430 428000
Capacity: 395","HMP Wolds, Everthorpe HU15 2JZ",1992,395,male,c ,HU15 2JZ,53.769775501,-0.6393964372,,,,,,,,,,,,,53.769775501,-0.6393964372,HU15 2JZ,Wolds,WOI,,,,,
Woodhill,"HM Prison Woodhill is a Category A male prison, located in Milton Keynes, England. Woodhill Prison is operated by Her Majesty's Prison Service. There is a Young Offenders Institution adjacent to the prison. Wikipedia

Address: Tattenhoe St, Milton Keynes MK4 4DA
Phone: 01908 722000
Hours: Open today · 8:15am–4:45pmSaturday8:15am–4:45pmSunday12:30–4:45pmMonday12–4:30pmTuesday12–4:30pmWednesday12–4:30pmThursday12–4:30pmFridayClosed
Opened: 1992","Tattenhoe St, Milton Keynes MK4 4DA",1992,,"male, yoi",a ,MK4 4DA,52.0130885608,-0.8077435913,Woodhill,Woodhill,Woodhill,HMP Woodhill,SC,http://www.doingtime.co.uk/hmp-woodhill/,Tattenhoe Street  Milton Keynes  Buckinghamshire  MK4 4DA,01908 722 000,"Cat A Core Local, serving both Crown and Magistrates Courts",MK4 4DA,52.0130885608,-0.8077435913,52.0130885608,-0.8077435913,MK4 4DA,Woodhill,WHI,,adult,,,
Wormwood Scrubs,"HM Prison Wormwood Scrubs is a Category B men's prison, located in the Wormwood Scrubs area of the London Borough of Hammersmith and Fulham, in inner west London, England. The prison is operated by Her Majesty's Prison Service. Wikipedia

Address: Du Cane Road, London W12 0AE
Opened: 1891
Phone: 020 8588 3200
Hours: Open today · 9–10am, 10:30–11:30am, 2–3pm, 3:30–4:30pmSaturday9–10am, 10:30–11:30am, 2–3pm, 3:30–4:30pmSunday2–3pm, 3:30–4:30pmMonday1:45–3:45pmTuesday9–11amWednesday9–11am, 1:45–3:45pmThursday9–11am, 1:45–3:45pmFridayClosed
London borough: London Borough of Hammersmith and Fulham","Du Cane Road, London W12 0AE",1891,,male,b ,W12 0AE,51.5170110854,-0.2404157815,Wormwood Scrubs,Wormwood Scrubs,Wormwood Scrubs,HMP Wormwood Scrubs,Lon,http://www.doingtime.co.uk/hmp-wormwood-scrubs/,HMP Wormwood Scrubs  P.O. Box 757  Du Cane Road  London  W12 0AE,020 8588 3200,Male Cat B,W12 0AE,51.5170110854,-0.2404157815,51.5170110854,-0.2404157815,W12 0AE,Wormwood Scrubs,WSI,,adult,,,
Wymott,"HM Prison Wymott is a Category C men's training prison, located in the village of Ulnes Walton, in Lancashire, England. Wymott is operated by Her Majesty's Prison Service, and is situated next to HMP Garth. Wikipedia

Opened: 1979",,1979,,male,c ,,,,Wymott,Wymott,Wymott,HMP Wymott,NW,http://www.doingtime.co.uk/hmp-wymott/,"Ulnes Walton Lane,  Leyland,  Preston,  Lancashire,  PR26 8LW",01772 442000,Male Cat C,PR26 8LW,53.6783763137,-2.7494025241,53.6783763137,-2.7494025241,PR26 8LW,Wymott,WMI,,adult,,,
